PK;NOMBRE;DESCRIPCION-ENTIDAD;HORARIO;EQUIPAMIENTO;TRANSPORTE;DESCRIPCION;ACCESIBILIDAD;CONTENT-URL;NOMBRE-VIA;CLASE-VIAL;TIPO-NUM;NUM;PLANTA;PUERTA;ESCALERAS;ORIENTACION;LOCALIDAD;PROVINCIA;CODIGO-POSTAL;COD-BARRIO;BARRIO;COD-DISTRITO;DISTRITO;COORDENADA-X;COORDENADA-Y;LATITUD;LONGITUD;TELEFONO;FAX;EMAIL;TIPO
23711;"Apartamentos Municipales para Mayores 'Retiro'";"";"";"Alojamiento.";"Metro: Sainz de BarandaBus: 15, 30, 56, 143, 202";"Condiciones de Admisión: - Estar empadronado en el municipio de Madrid.- Ser mayor de 65 años (también el cónyuge que conviva con él, siempre que tenga cumplidos los 60 años).- Ser autónomo en la realización de las actividades básicas diarias.- Carecer de vivienda propia o ser ésta inadecuada y/o encontrarse en riesgo por vivir solo.- Estar dispuesto a ingresar en un Centro Residencial Asistido cuando no se valga por sí mismo.";"1";"http://www.madrid.es/sites/v/index.jsp?vgnextchannel=bfa48ab43d6bb410VgnVCM100000171f5a0aRCRD&vgnextoid=ce926545f951c010VgnVCM2000000c205a0aRCRD";"JOSE MARTINEZ DE VELASCO";"CALLE";"V";"22";"";"";"";"";"MADRID";"MADRID";"28007";"3";"ESTRELLA";"3";"RETIRO";"443346";"4473992";"40.41461489944016";"-3.667774590446818";"915 571 319";"";"";"/contenido/entidadesYorganismos/CentrosAtencionSocialMayores/ResidenciasApartamentosMayores"
11824;"Apartamentos Municipales para Mayores 'San Francisco'";"";"";"Alojamiento.";"Metro: LatinaBus: 3, 148";"Condiciones de Admisión: - Estar empadronado en el municipio de Madrid.- Ser mayor de 65 años (también el cónyuge que conviva con él, siempre que tenga cumplidos los 60 años).- Ser autónomo en la realización de las actividades básicas diarias.- Carecer de vivienda propia o ser ésta inadecuada y/o encontrarse en riesgo por vivir solo.- Estar dispuesto a ingresar en un Centro Residencial Asistido cuando no se valga por sí mismo.";"1";"http://www.madrid.es/sites/v/index.jsp?vgnextchannel=bfa48ab43d6bb410VgnVCM100000171f5a0aRCRD&vgnextoid=8300d4985261c010VgnVCM1000000b205a0aRCRD";"JERTE";"CALLE";"V";"3";"";"";"";"";"MADRID";"MADRID";"28005";"1";"PALACIO";"1";"CENTRO";"439289";"4473597";"40.41077050441227";"-3.715552056000273";"913 644 005";"";"";"/contenido/entidadesYorganismos/CentrosAtencionSocialMayores/ResidenciasApartamentosMayores"
11545193;"Centro de día Gerontológico de Estancia Diurna";"";"";"";"Metro: San Francisco (línea 11).  Bus: 118, 47.";"";"3";"http://www.madrid.es/sites/v/index.jsp?vgnextchannel=bfa48ab43d6bb410VgnVCM100000171f5a0aRCRD&vgnextoid=e3a5eabb8aa7d710VgnVCM1000001d4a900aRCRD";"BELZUNEGUI";"CALLE";"V";"15";"";"";"";"";"MADRID";"MADRID";"28025";"5";"PUERTA BONITA";"11";"CARABANCHEL";"437271";"4469741";"40.37589326502954";"-3.738942633929243";"915 254 211";"";"";"/contenido/entidadesYorganismos/CentrosAtencionSocialMayores/ResidenciasApartamentosMayores"
11542466;"Centro de día Vivendia Personas Mayores";"";"";"";"Metro: Usera (línea 6).  Bus: 78.";"";"3";"http://www.madrid.es/sites/v/index.jsp?vgnextchannel=bfa48ab43d6bb410VgnVCM100000171f5a0aRCRD&vgnextoid=e95685f23df6d710VgnVCM2000001f4a900aRCRD";"LUIS USERA";"CALLE";"V";"4";"";"";"";"";"MADRID";"MADRID";"28026";"7";"PRADOLONGO";"12";"USERA";"440051";"4470191";"40.38015806755923";"-3.706230534819912";"914 766 831";"";"";"/contenido/entidadesYorganismos/CentrosAtencionSocialMayores/ResidenciasApartamentosMayores"
11545182;"Centro de día para enfermos de alzheimer Reina Sofía (calle Infanta Mercedes 26)";"";"";"";"Metro: Estrecho (línea 1).  Bus: 126, 3.  Bicimad: Estaciones 155 (calle San Germán, 57), 154 (calle Orense, 36), 152 (avenida del General Perón, 4).  Aparcamiento: Presidente Carmona (33), avenida Presidente Carmona.";"";"3";"http://www.madrid.es/sites/v/index.jsp?vgnextchannel=bfa48ab43d6bb410VgnVCM100000171f5a0aRCRD&vgnextoid=83c3eabb8aa7d710VgnVCM1000001d4a900aRCRD";"INFANTA MERCEDES";"CALLE";"V";"26";"";"";"";"";"MADRID";"MADRID";"28020";"2";"CUATRO CAMINOS";"6";"TETUAN";"440787";"4478556";"40.45556545448107";"-3.698340232909169";"913 308 842";"";"";"/contenido/entidadesYorganismos/CentrosAtencionSocialMayores/ResidenciasApartamentosMayores"
11545229;"Centro de día para mayores Cruz Roja Española edificio Muguet 7";"";"";"";"Metro: Carabanchel Alto (línea 11).  Bus: 108, 118.";"";"3";"http://www.madrid.es/sites/v/index.jsp?vgnextchannel=bfa48ab43d6bb410VgnVCM100000171f5a0aRCRD&vgnextoid=773c3fc00ea7d710VgnVCM1000001d4a900aRCRD";"MUGUET";"CALLE";"V";"7";"";"";"";"";"MADRID";"MADRID";"28044";"6";"BUENAVISTA";"11";"CARABANCHEL";"436618";"4469068";"40.36978284802807";"-3.746558698400538";"915 325 555";"";"";"/contenido/entidadesYorganismos/CentrosAtencionSocialMayores/ResidenciasApartamentosMayores"
11542485;"Centro de día para mayores Doctor Espina";"";"";"";"Metro: Oporto (líneas 5 y 6).  Bus: 34, 35, 118.";"";"3";"http://www.madrid.es/sites/v/index.jsp?vgnextchannel=bfa48ab43d6bb410VgnVCM100000171f5a0aRCRD&vgnextoid=d129df004107d710VgnVCM2000001f4a900aRCRD";"DOCTOR ESPINA";"CALLE";"V";"16";"";"";"";"";"MADRID";"MADRID";"28019";"2";"OPAÑEL";"11";"CARABANCHEL";"438223";"4471266";"40.38970820927584";"-3.727868800617044";"914 724 539";"";"";"/contenido/entidadesYorganismos/CentrosAtencionSocialMayores/ResidenciasApartamentosMayores"
11542516;"Centro de día para mayores Domusvi Chamartín";"";"";"";"Metro: Alfonso XIII (línea 4).  Bus: 73, 9, 72.";"";"3";"http://www.madrid.es/sites/v/index.jsp?vgnextchannel=bfa48ab43d6bb410VgnVCM100000171f5a0aRCRD&vgnextoid=e100df004107d710VgnVCM2000001f4a900aRCRD";"ANTONIO SALCES";"CALLE";"V";"1";"";"";"";"";"MADRID";"MADRID";"28002";"2";"PROSPERIDAD";"5";"CHAMARTIN";"443130";"4477415";"40.445446492753945";"-3.6706138488877755";"917 440 310";"";"";"/contenido/entidadesYorganismos/CentrosAtencionSocialMayores/ResidenciasApartamentosMayores"
35679;"Centro de día para mayores El Bosque";"";"";"";"Metro: O'Donnell (línea 6).  Bus: C2, 143, 156, 2, 56, 71, 12, 30, C1.  Bicimad: Estación 184 (paseo Marqués de Zafra, 24).";"";"3";"http://www.madrid.es/sites/v/index.jsp?vgnextchannel=bfa48ab43d6bb410VgnVCM100000171f5a0aRCRD&vgnextoid=efcb444a2951c010VgnVCM2000000c205a0aRCRD";"LOS PEÑASCALES";"CALLE";"V";"14";"";"";"";"";"MADRID";"MADRID";"28028";"3";"FUENTE DEL BERRO";"4";"SALAMANCA";"443499";"4475024";"40.42393836822985";"-3.6660438581462427";"915 732 828";"";"";"/contenido/entidadesYorganismos/CentrosAtencionSocialMayores/ResidenciasApartamentosMayores"
17464;"Centro de día para mayores Geriacen";"";"";"";"Metro: Begoña (línea 10).  Bus: 124, 137, 135, 175, 178.  Cercanías Renfe: Ramón y Cajal (líneas C3a, C7, C8 y Regional).";"";"3";"http://www.madrid.es/sites/v/index.jsp?vgnextchannel=bfa48ab43d6bb410VgnVCM100000171f5a0aRCRD&vgnextoid=150832df1d51c010VgnVCM2000000c205a0aRCRD";"VIRGEN DE ARANZAZU";"CALLE";"V";"1";"";"";"";"";"MADRID";"MADRID";"28034";"6";"VALVERDE";"8";"FUENCARRAL-EL PARDO";"441546";"4481856";"40.48534272125386";"-3.6896927709062934";"";"";"";"/contenido/entidadesYorganismos/CentrosAtencionSocialMayores/ResidenciasApartamentosMayores"
7572680;"Centro de día para mayores Los Nogales Pontones";"";"";"";"Metro: Pirámides (línea 5).  Bus: 62, 36, 50, 41.  Renfe: Pirámides (líneas C1 y C10).  Bicimad: Estación 236 (paseo Imperial, 20).";"";"3";"http://www.madrid.es/sites/v/index.jsp?vgnextchannel=bfa48ab43d6bb410VgnVCM100000171f5a0aRCRD&vgnextoid=e9e4b15291a17410VgnVCM2000000c205a0aRCRD";"COBOS DE SEGOVIA";"CALLE";"V";"2";"";"";"";"";"MADRID";"MADRID";"28005";"1";"IMPERIAL";"2";"ARGANZUELA";"438947";"4473215";"40.40731334276545";"-3.7195342296574414";"913 648 252";"";"";"/contenido/entidadesYorganismos/CentrosAtencionSocialMayores/ResidenciasApartamentosMayores"
102125;"Centro de día para mayores María Orué";"";"";"";"Metro: Villaverde Bajo Cruce (línea 3).  Bus: 123, 85.  Cercanías Renfe: Villaverde Bajo (C3, C4, C4a y C4b).";"";"3";"http://www.madrid.es/sites/v/index.jsp?vgnextchannel=bfa48ab43d6bb410VgnVCM100000171f5a0aRCRD&vgnextoid=5e86ad452e81c010VgnVCM1000000b205a0aRCRD";"MARIA ORUE";"CALLE";"V";"1";"";"";"";"A";"MADRID";"MADRID";"28021";"4";"LOS ROSALES";"17";"VILLAVERDE";"441701";"4467169";"40.35303592309651";"-3.6865380576929203";"917 100 484";"";"";"/contenido/entidadesYorganismos/CentrosAtencionSocialMayores/ResidenciasApartamentosMayores"
11407;"Centro de día para mayores Sanivida Arganzuela";"";"";"";"Metro: Arganzuela-Planetario (línea 6).  Bus: 62.";"";"3";"http://www.madrid.es/sites/v/index.jsp?vgnextchannel=bfa48ab43d6bb410VgnVCM100000171f5a0aRCRD&vgnextoid=477172081661c010VgnVCM1000000b205a0aRCRD";"PUERTO DE LA CRUZ VERDE";"CALLE";"V";"14";"";"";"";"";"MADRID";"MADRID";"28045";"4";"LEGAZPI";"2";"ARGANZUELA";"441701";"4470913";"40.38677696524991";"-3.6868609856637575";"915 281 590";"";"";"/contenido/entidadesYorganismos/CentrosAtencionSocialMayores/ResidenciasApartamentosMayores"
11382;"Centro de día para mayores Sanivida Latina";"";"";"";"Bus: 138, 17, 139.  Cercanías Renfe: Maestra Justa Freire - Polideportivo Aluche (antigua estación de Fanjul) (línea C5).";"";"3";"http://www.madrid.es/sites/v/index.jsp?vgnextchannel=bfa48ab43d6bb410VgnVCM100000171f5a0aRCRD&vgnextoid=04f672081661c010VgnVCM1000000b205a0aRCRD";"DOCTOR BLANCO SOLER";"CALLE";"V";"20";"";"";"";"";"MADRID";"MADRID";"28044";"7";"LAS AGUILAS";"10";"LATINA";"434830";"4470482";"40.382385740001446";"-3.7677639040703936";"917 107 980";"";"";"/contenido/entidadesYorganismos/CentrosAtencionSocialMayores/ResidenciasApartamentosMayores"
165378;"Centro de día para mayores Sanivida Puente de Vallecas";"";"";"";"Metro: Nueva Numancia (línea 1).  Bus: 136, 54, 57, 58, 141, 10, 11, 24, 310.  Bicimad: Estación 226 (camino de Valderribas, 94).";"";"3";"http://www.madrid.es/sites/v/index.jsp?vgnextchannel=bfa48ab43d6bb410VgnVCM100000171f5a0aRCRD&vgnextoid=3b068f90a581c010VgnVCM1000000b205a0aRCRD";"SIERRA DE LOS FILABRES";"CALLE";"V";"69";"2";"A";"";"";"MADRID";"MADRID";"28038";"6";"NUMANCIA";"13";"PUENTE DE VALLECAS";"443761";"4472046";"40.3971265659498";"-3.6626915769947526";"913 287 599";"";"";"/contenido/entidadesYorganismos/CentrosAtencionSocialMayores/ResidenciasApartamentosMayores"
11542436;"Centro de día para mayores Valleluz";"";"";"";"Metro: Usera (línea 6).  Bus: 6.";"";"3";"http://www.madrid.es/sites/v/index.jsp?vgnextchannel=bfa48ab43d6bb410VgnVCM100000171f5a0aRCRD&vgnextoid=f23085f23df6d710VgnVCM2000001f4a900aRCRD";"RAMON LUJAN";"CALLE";"V";"78";"";"";"";"";"MADRID";"MADRID";"28026";"4";"ALMENDRALES";"12";"USERA";"440221";"4470584";"40.383704119162076";"-3.704268888852896";"917 923 205";"";"";"/contenido/entidadesYorganismos/CentrosAtencionSocialMayores/ResidenciasApartamentosMayores"
10846518;"Centro de día y Residencia para mayores Residencial Albertia Mirasierra";"";"";"";"Bus:   67, 82.";"";"3";"http://www.madrid.es/sites/v/index.jsp?vgnextchannel=bfa48ab43d6bb410VgnVCM100000171f5a0aRCRD&vgnextoid=7d274a85eb6a7610VgnVCM2000001f4a900aRCRD";"ROSALIA DE CASTRO";"CALLE";"V";"80";"";"";"";"";"MADRID";"MADRID";"28035";"3";"PEÑA GRANDE";"8";"FUENCARRAL-EL PARDO";"437810";"4481679";"40.483479493116896";"-3.7337558186802955";"913 876 550";"";"";"/contenido/entidadesYorganismos/CentrosAtencionSocialMayores/ResidenciasApartamentosMayores"
7575271;"Centro de día y Residencia para mayores Vista Alegre";"";"";"Residencia de personas mayores dependientes.";"Metro: Oporto (líneas 5 y 6).  Bus: 34, 35.";"";"3";"http://www.madrid.es/sites/v/index.jsp?vgnextchannel=bfa48ab43d6bb410VgnVCM100000171f5a0aRCRD&vgnextoid=00f4c17687427410VgnVCM2000000c205a0aRCRD";"GENERAL RICARDOS";"CALLE";"V";"177";"";"";"";"";"MADRID";"MADRID";"28025";"5";"PUERTA BONITA";"11";"CARABANCHEL";"437487";"4470773";"40.385197375260255";"-3.7364997414123096";"914 208 930 (centro de día) / 914 629 363 (residencia)";"";"";"/contenido/entidadesYorganismos/CentrosAtencionSocialMayores/ResidenciasApartamentosMayores"
11087524;"Centro de día y residencia para mayores Casablanca Villaverde";"";"";"Centro de día y residencia de personas mayores mixta.";"Bus: 131.";"";"3";"http://www.madrid.es/sites/v/index.jsp?vgnextchannel=bfa48ab43d6bb410VgnVCM100000171f5a0aRCRD&vgnextoid=47c9d6af1e21f610VgnVCM2000001f4a900aRCRD";"RAFAELA YBARRA";"AVENIDA";"V";"135";"";"";"";"";"MADRID";"MADRID";"28041";"1";"VILLAVERDE ALTO C.H.";"17";"VILLAVERDE";"439285";"4467959";"40.359995399471316";"-3.715042615194612";"917 168 080";"";"";"/contenido/entidadesYorganismos/CentrosAtencionSocialMayores/ResidenciasApartamentosMayores"
175468;"Centro de día y residencia para mayores Domusvi Albufera";"";"";"Centro de día y residencia de personas mayores dependientes.";"Metro: Nueva Numancia (línea 1).  Bus: 24.  Bicimad: Estación 227 (calle Arroyo del Olivar, 6).";"";"3";"http://www.madrid.es/sites/v/index.jsp?vgnextchannel=bfa48ab43d6bb410VgnVCM100000171f5a0aRCRD&vgnextoid=18087a7e0a61c010VgnVCM1000000b205a0aRCRD";"SIERRA DE ALCUBIERRE";"CALLE";"V";"8";"";"";"";"";"MADRID";"MADRID";"28053";"2";"SAN DIEGO";"13";"PUENTE DE VALLECAS";"443315";"4471476";"40.39194732029242";"-3.667904105178595";"917 570 510";"";"";"/contenido/entidadesYorganismos/CentrosAtencionSocialMayores/ResidenciasApartamentosMayores"
11544858;"Centro de día y residencia para mayores Fundación Vía Norte Laguna";"";"";"Centro de día y residencia de personas mayores dependientes.";"Metro: Laguna (línea 6).  Bus: 55.  Cercanías Renfe: Laguna (línea C5).";"";"3";"http://www.madrid.es/sites/v/index.jsp?vgnextchannel=bfa48ab43d6bb410VgnVCM100000171f5a0aRCRD&vgnextoid=79a7dd3a5c67d710VgnVCM1000001d4a900aRCRD";"CONCEJAL FRANCISCO JOSE JIMENEZ MARTIN";"CALLE";"V";"128";"";"";"";"";"MADRID";"MADRID";"28047";"3";"LUCERO";"10";"LATINA";"436609";"4472480";"40.40052019760962";"-3.747005145040932";"915 099 137";"";"";"/contenido/entidadesYorganismos/CentrosAtencionSocialMayores/ResidenciasApartamentosMayores"
11545359;"Centro de día y residencia para mayores Gran Residencia";"";"";"Centro de día y residencia de personas mayores mixta.";"Metro: Oporto (líneas 5 y 6).  Bus: 34, 35.";"";"3";"http://www.madrid.es/sites/v/index.jsp?vgnextchannel=bfa48ab43d6bb410VgnVCM100000171f5a0aRCRD&vgnextoid=a7468f7000b7d710VgnVCM1000001d4a900aRCRD";"GENERAL RICARDOS";"CALLE";"V";"177";"";"";"";"";"MADRID";"MADRID";"28025";"5";"PUERTA BONITA";"11";"CARABANCHEL";"437487";"4470773";"40.385207193828954";"-3.7364894865229403";"914 625 800";"";"";"/contenido/entidadesYorganismos/CentrosAtencionSocialMayores/ResidenciasApartamentosMayores"
11342;"Hogar Residencia para mayores San Luis de los Franceses";"";"";"Residencia de personas mayores dependientes.";"Metro: Núñez de Balboa (líneas 5, 9)  Bus: 19, 51, 9, 1, 74.  Bicimad: Estaciones 88 (calle Velázquez, 75), 103 (calle José Ortega y Gasset, 4), 142 (paseo de la Castellana, 42), 190 (calle Velázquez, 91).  Aparcamiento: Velázquez Juan Bravo (58), calle Velázquez y calle Juan Bravo.";"";"3";"http://www.madrid.es/sites/v/index.jsp?vgnextchannel=bfa48ab43d6bb410VgnVCM100000171f5a0aRCRD&vgnextoid=f57772081661c010VgnVCM1000000b205a0aRCRD";"CLAUDIO COELLO";"CALLE";"NUM";"94";"";"";"";"";"MADRID";"MADRID";"28006";"6";"CASTELLANA";"4";"SALAMANCA";"441851";"4475953";"40.432177519311246";"-3.6855620446700197";"914 312 800";"";"";"/contenido/entidadesYorganismos/CentrosAtencionSocialMayores/ResidenciasApartamentosMayores"
7389333;"Hospital Hestia Madrid";"";"";"";"Consulta los siguientes enlaces.";"";"3";"http://www.madrid.es/sites/v/index.jsp?vgnextchannel=bfa48ab43d6bb410VgnVCM100000171f5a0aRCRD&vgnextoid=4dbba2ff906b4410VgnVCM2000000c205a0aRCRD";"M-607";"AUTOVIA";"V";"1600";"";"";"";"";"MADRID";"MADRID";"28049";"8";"EL GOLOSO";"8";"FUENCARRAL-EL PARDO";"440721";"4487960";"40.54027195136139";"-3.7000002593887857";"917 340 500";"";"";"/contenido/entidadesYorganismos/CentrosAtencionMedica/HospitalesClinicasSanatorios"
7576499;"Residencia Centro de día para mayores Monteparís";"";"";"Residencia para personas mayores mixta y centro de día para mayores.";"Metro: Torre Arias (línea 5).  Bus: 141.";"";"3";"http://www.madrid.es/sites/v/index.jsp?vgnextchannel=bfa48ab43d6bb410VgnVCM100000171f5a0aRCRD&vgnextoid=fd3b4ce0d2437410VgnVCM2000000c205a0aRCRD";"MARIA TARIN";"CALLE";"V";"7";"";"";"";"";"MADRID";"MADRID";"28022";"8";"EL SALVADOR";"20";"SAN BLAS-CANILLEJAS";"447442";"4477685";"40.44816376887616";"-3.6197896208804";"911 012 140";"";"";"/contenido/entidadesYorganismos/CentrosAtencionSocialMayores/ResidenciasApartamentosMayores"
4603128;"Residencia Municipal de Mayores 'Santa Engracia'";"";"De lunes a domingo (Se recomienda no realizar visitas durante el horario de comidas y de descanso)";"Asistencia médica y enfermería - Fisioterapia - Rehabilitación - Terapia ocupacional - Gerocultoras 24 horas. Comedor - Gimnasio - Terraza ajardinada.";"Metro: Ríos Rosas Bus: 3, 12, 37, 45, 149";"Información Complementaria:  Estar empadronado en el municipio de Madrid. Ser mayor de 65 años (también el cónyuge que conviva con él, siempre que tenga cumplidos los 60 años). Estar afectado de deterioro físico o relacional. Presentar una situación socio-familiar y limitación de su autonomía personal que le impida seguir viviendo en su domicilio.  Plazas: 36";"1";"http://www.madrid.es/sites/v/index.jsp?vgnextchannel=bfa48ab43d6bb410VgnVCM100000171f5a0aRCRD&vgnextoid=bab53ff1b3d43110VgnVCM1000000b205a0aRCRD";"SANTA ENGRACIA";"CALLE";"V";"118";"";"";"";"";"MADRID";"MADRID";"28003";"5";"RIOS ROSAS";"7";"CHAMBERI";"440564";"4476855";"40.44021209664331";"-3.70083054045977";"919 907 720";"";"";"/contenido/entidadesYorganismos/CentrosAtencionSocialMayores/ResidenciasApartamentosMayores"
5416084;"Residencia Municipal de Mayores con Alzheimer 'Jazmín'";"";"De lunes a domingo (Se recomienda no realizar visitas durante el horario de comidas y de descanso)";"Asistencia médica y enfermería - Fisioterapia - Rehabilitación - Terapia ocupacional - Gerocultoras 24 horas. Comedor - Gimnasio - Terraza ajardinada.";"Metro: Pinar de Chamartín Bus: 29, 125, 129, 150";"Información Complementaria:  Estar empadronado en el Municipio de Madrid. Ser mayor de 60 años. Padecer enfermedad de Alzheimer u otra demencia. Presentar una situación socio-familiar y limitación de su autonomía personal que le impida seguir viviendo en su domicilio.  Plazas: 58";"1";"http://www.madrid.es/sites/v/index.jsp?vgnextchannel=bfa48ab43d6bb410VgnVCM100000171f5a0aRCRD&vgnextoid=20c8d3e6b57b3210VgnVCM1000000b205a0aRCRD";"JAZMIN";"CALLE";"V";"48";"";"";"";"";"MADRID";"MADRID";"28033";"9";"COSTILLARES";"15";"CIUDAD LINEAL";"443590";"4481230";"40.47983503686516";"-3.665529907143783";"913 836 520";"";"";"/contenido/entidadesYorganismos/CentrosAtencionSocialMayores/ResidenciasApartamentosMayores"
4682195;"Residencia Municipal de Mayores con Alzheimer 'Margarita Retuerto'";"";"De lunes a domingo (Se recomienda no realizar visitas durante el horario de comidas y de descanso)";"Alojamiento y atención especializada, integral a personas mayores con Alzheimer u otras demencias.";"Metro: L2 y L5 (Ventas) Bus: 53, 74";"Información Complementaria:  Estar empadronado en el Municipio de Madrid. Ser mayor de 60 años. Padecer enfermedad de Alzheimer u otra demencia. Presentar una situación socio-familiar y limitación de su autonomía personal que le impida seguir viviendo en su domicilio.  Plazas: 90.";"1";"http://www.madrid.es/sites/v/index.jsp?vgnextchannel=bfa48ab43d6bb410VgnVCM100000171f5a0aRCRD&vgnextoid=377c55c5b1516110VgnVCM1000000b205a0aRCRD";"FRANCISCO ALTIMIRAS";"CALLE";"V";"4";"";"";"";"";"MADRID";"MADRID";"28028";"4";"GUINDALERA";"4";"SALAMANCA";"443706";"4476157";"40.43415188174195";"-3.663711634900414";"917 241 448";"";"";"/contenido/entidadesYorganismos/CentrosAtencionSocialMayores/ResidenciasApartamentosMayores"
38737;"Residencia de personas mayores Madrid-Orcasur";"";"";"Residencia de personas mayores dependientes";"Metro:   San Fermín - Orcasur (línea 3).    Bus:   116, 76, 78.   Cercanías Renfe: Orcasitas (línea C5).";"";"3";"http://www.madrid.es/sites/v/index.jsp?vgnextchannel=bfa48ab43d6bb410VgnVCM100000171f5a0aRCRD&vgnextoid=7d6d444a2951c010VgnVCM2000000c205a0aRCRD";"SALOBRE&amp;Ntilde;A";"CALLE";"V";"2";"";"";"";"";"MADRID";"MADRID";"28041";"2";"ORCASUR";"12";"USERA";"440638";"4468636";"40.36618874328907";"-3.6991696439023336";"913 699 234 / 914 626 932";"";"";"/contenido/entidadesYorganismos/CentrosAtencionSocialMayores/ResidenciasApartamentosMayores"
11337;"Residencia geriátrica Imbea";"";"";"Residencia de personas mayores dependientes.";"Metro: Pío XII (línea 9).  Bus: 14, 150.";"";"3";"http://www.madrid.es/sites/v/index.jsp?vgnextchannel=bfa48ab43d6bb410VgnVCM100000171f5a0aRCRD&vgnextoid=b51472081661c010VgnVCM1000000b205a0aRCRD";"MENENDEZ PIDAL";"CALLE";"NUM";"25";"";"";"";"";"MADRID";"MADRID";"28036";"5";"NUEVA ESPAÑA";"5";"CHAMARTIN";"442241";"4479358";"40.46287845117214";"-3.681285810590592";"913 595 600";"";"";"/contenido/entidadesYorganismos/CentrosAtencionSocialMayores/ResidenciasApartamentosMayores"
11359;"Residencia geriátrica Los Álamos";"";"";"Residencia de personas mayores mixta.";"Metro: Francos Rodríguez (línea 7).  Bus: 132, 44.";"";"3";"http://www.madrid.es/sites/v/index.jsp?vgnextchannel=bfa48ab43d6bb410VgnVCM100000171f5a0aRCRD&vgnextoid=765572081661c010VgnVCM1000000b205a0aRCRD";"PIRINEOS";"CALLE";"NUM";"37";"";"";"";"";"MADRID";"MADRID";"28040";"3";"CIUDAD UNIVERSITARIA";"9";"MONCLOA-ARAVACA";"439154";"4478512";"40.455037101815996";"-3.717601796413703";"914 598 655";"";"";"/contenido/entidadesYorganismos/CentrosAtencionSocialMayores/ResidenciasApartamentosMayores"
5931893;"Residencia para mayores Abedul";"";"";"Residencia de personas mayores dependientes.";"Metro: Colombia (líneas 8 y 9), Avenida Pío XII (linea 9).  Bus: 51, 150, 16, 29, 11, 40.  Bicimad: Estación 254 (avenida Pío XII, 3).  Aparcamiento: República Dominicana (61), plaza república Dominicana.";"";"3";"http://www.madrid.es/sites/v/index.jsp?vgnextchannel=bfa48ab43d6bb410VgnVCM100000171f5a0aRCRD&vgnextoid=e30b102ed5dbd210VgnVCM2000000c205a0aRCRD";"ALFONSO XIII";"AVENIDA";"V";"188";"";"";"";"";"MADRID";"MADRID";"28016";"5";"NUEVA ESPAÑA";"5";"CHAMARTIN";"442478";"4479085";"40.460435655665385";"-3.6784540171768905";"913 456 631";"";"";"/contenido/entidadesYorganismos/CentrosAtencionSocialMayores/ResidenciasApartamentosMayores"
11320;"Residencia para mayores Asilo mi casa";"";"";"Residencia de personas mayores mixta.";"Metro: Alonso Martínez (líneas 4, 5 y 10).  Bus: 7, 3, 21, C03.  Bicimad: Estaciones 8 (Plaza Alonso Martínez, 5), 122 (calle Santa Engracia, 14).  Aparcamiento: Almagro (12), calle Almagro 11.";"";"3";"http://www.madrid.es/sites/v/index.jsp?vgnextchannel=bfa48ab43d6bb410VgnVCM100000171f5a0aRCRD&vgnextoid=93a8d4985261c010VgnVCM1000000b205a0aRCRD";"ALMAGRO";"CALLE";"NUM";"7";"";"";"";"";"MADRID";"MADRID";"28010";"4";"ALMAGRO";"7";"CHAMBERI";"441198";"4475815";"40.42901590653423";"-3.694525024579778";"913 192 096";"";"";"/contenido/entidadesYorganismos/CentrosAtencionSocialMayores/ResidenciasApartamentosMayores"
5931910;"Residencia para mayores Atenea Mirasierra";"";"";"Residencia de personas mayores dependientes.";"Metro: Herrera Oria (línea 9).  Bus: 124, 133, 67.";"";"3";"http://www.madrid.es/sites/v/index.jsp?vgnextchannel=bfa48ab43d6bb410VgnVCM100000171f5a0aRCRD&vgnextoid=fa0f102ed5dbd210VgnVCM2000000c205a0aRCRD";"CARDENAL HERRERA ORIA";"AVENIDA";"V";"162";"";"";"";"";"MADRID";"MADRID";"28034";"7";"MIRASIERRA";"8";"FUENCARRAL-EL PARDO";"440171";"4482084";"40.48730409837951";"-3.7059345193121174";"917 310 570";"";"";"/contenido/entidadesYorganismos/CentrosAtencionSocialMayores/ResidenciasApartamentosMayores"
11279;"Residencia para mayores Ave María sanatorio geriátrico";"";"";"Residencia de personas mayores dependientes.";"Metro: Avenida de la Paz (línea 4).  Bus: 40.";"";"3";"http://www.madrid.es/sites/v/index.jsp?vgnextchannel=bfa48ab43d6bb410VgnVCM100000171f5a0aRCRD&vgnextoid=e908d4985261c010VgnVCM1000000b205a0aRCRD";"ASTER";"AVENIDA";"NUM";"24";"";"";"";"";"MADRID";"MADRID";"28016";"4";"HISPANOAMERICA";"5";"CHAMARTIN";"443573";"4478688";"40.45694331092266";"-3.6655162594094697";"914 134 588";"";"";"/contenido/entidadesYorganismos/CentrosAtencionSocialMayores/ResidenciasApartamentosMayores"
5934865;"Residencia para mayores Años Dorados III";"";"";"Residencia de personas mayores dependientes.";"Metro: Pinar del Rey (línea 8), Esperanza (línea 4).  Bus: 73.";"";"3";"http://www.madrid.es/sites/v/index.jsp?vgnextchannel=bfa48ab43d6bb410VgnVCM100000171f5a0aRCRD&vgnextoid=d75b4e254bccd210VgnVCM1000000b205a0aRCRD";"AGUSTIN CALVO";"CALLE";"V";"19";"";"";"";"";"MADRID";"MADRID";"28043";"3";"CANILLAS";"16";"HORTALEZA";"444867";"4479470";"40.46407488207534";"-3.6503118012929687";"913 882 262";"";"";"/contenido/entidadesYorganismos/CentrosAtencionSocialMayores/ResidenciasApartamentosMayores"
5931986;"Residencia para mayores Ballesol - Olavide";"";"";"Residencia de personas mayores dependientes.";"Metro: Bilbao (líneas 1 y 4), Iglesia (línea 1), Quevedo (línea 2).  Bus: 147, 40, 3, 37.  Bicimad: Estación 124 (calle Manuel Silvela, 20).  Aparcamiento: Olavide (52), plaza de Olavide.";"";"3";"http://www.madrid.es/sites/v/index.jsp?vgnextchannel=bfa48ab43d6bb410VgnVCM100000171f5a0aRCRD&vgnextoid=65d97e75a8dbd210VgnVCM2000000c205a0aRCRD";"JUAN DE AUSTRIA";"CALLE";"V";"9";"";"";"";"";"MADRID";"MADRID";"28010";"3";"TRAFALGAR";"7";"CHAMBERI";"440672";"4475994";"40.432475623933875";"-3.699462547932329";"";"";"";"/contenido/entidadesYorganismos/CentrosAtencionSocialMayores/ResidenciasApartamentosMayores"
5934085;"Residencia para mayores Ballesol Centro residencial Pasillo Verde";"";"";"Residencia de personas mayores mixta.";"Bus:   8, 102, 152, 156.";"";"3";"http://www.madrid.es/sites/v/index.jsp?vgnextchannel=bfa48ab43d6bb410VgnVCM100000171f5a0aRCRD&vgnextoid=4ebfa2bedb7cd210VgnVCM2000000c205a0aRCRD";"AMALTEA";"CALLE";"V";"25";"";"";"";"";"MADRID";"MADRID";"28045";"5";"DELICIAS";"2";"ARGANZUELA";"441996";"4471789";"40.394685196430956";"-3.6834730905798003";"915 062 270";"";"";"/contenido/entidadesYorganismos/CentrosAtencionSocialMayores/ResidenciasApartamentosMayores"
5931922;"Residencia para mayores Ballesol Madrid";"";"";"Residencia de personas mayores dependientes.";"Metro: Alonso Martínez (líneas 4, 5 y 10), Bilbao (líneas 1 y 4).  Bus: 37, 40, 21, C03, 147.  Bicimad: Estaciones 124 (calle Manuel Silvela, 20), 122 (calle Santa Engracia, 14), 54 (calle Barceló, 7).  Aparcamientos: Barceló (69), calle Barceló s/n; Arquitecto Ribera (Barceló) (17), calle Barceló, 2.";"";"3";"http://www.madrid.es/sites/v/index.jsp?vgnextchannel=bfa48ab43d6bb410VgnVCM100000171f5a0aRCRD&vgnextoid=b7c0102ed5dbd210VgnVCM2000000c205a0aRCRD";"FRANCISCO DE ROJAS";"CALLE";"V";"4";"";"";"";"";"MADRID";"MADRID";"28010";"3";"TRAFALGAR";"7";"CHAMBERI";"440673";"4475602";"40.42893236205961";"-3.6994166357657114";"914 464 205";"";"";"/contenido/entidadesYorganismos/CentrosAtencionSocialMayores/ResidenciasApartamentosMayores"
10843271;"Residencia para mayores Ballesol Mirasierra";"";"";"Residencia de personas mayores dependientes.";"Metro: Avenida de la Ilustración (Línea 7), Herrera Oria (línea 9).  Bus: 64, 134, 124, 49.";"";"3";"http://www.madrid.es/sites/v/index.jsp?vgnextchannel=bfa48ab43d6bb410VgnVCM100000171f5a0aRCRD&vgnextoid=a4e525682ad97610VgnVCM1000001d4a900aRCRD";"VENTISQUERO DE LA CONDESA";"AVENIDA";"V";"2";"";"";"";"";"MADRID";"MADRID";"28035";"7";"MIRASIERRA";"8";"FUENCARRAL-EL PARDO";"439396";"4481704";"40.48382234519796";"-3.7150463831035374";"917 389 022 / 915 416  586";"";"";"/contenido/entidadesYorganismos/CentrosAtencionSocialMayores/ResidenciasApartamentosMayores"
11450;"Residencia para mayores Ballesol Parque Almansa";"";"";"Residencia de personas mayores mixta.";"Metro: Vicente Aleixandre (línea 6), Guzmán el Bueno  (líneas 6 y 7).  Bus:  132, F, C2.";"";"3";"http://www.madrid.es/sites/v/index.jsp?vgnextchannel=bfa48ab43d6bb410VgnVCM100000171f5a0aRCRD&vgnextoid=ffd172081661c010VgnVCM1000000b205a0aRCRD";"JUAN XXIII";"PASEO";"V";"38";"";"";"";"";"MADRID";"MADRID";"28040";"3";"CIUDAD UNIVERSITARIA";"9";"MONCLOA-ARAVACA";"439354";"4477939";"40.449904898318906";"-3.7151866542994187";"915 546 652";"";"";"/contenido/entidadesYorganismos/CentrosAtencionSocialMayores/ResidenciasApartamentosMayores"
130110;"Residencia para mayores Ballesol Príncipe de Vergara";"";"";"Residencia de personas mayores dependientes.";"Metro: Prosperidad (línea 4), Cruz del Rayo (línea 9).  Bus: 73, 9, 1.  Bicimad: Estaciones 196 (calle Suero de Quiñones, 2), 146 (calle María Francisca, 1).";"";"3";"http://www.madrid.es/sites/v/index.jsp?vgnextchannel=bfa48ab43d6bb410VgnVCM100000171f5a0aRCRD&vgnextoid=86292189cb81c010VgnVCM1000000b205a0aRCRD";"CARTAGENA";"CALLE";"V";"133";"";"";"";"";"MADRID";"MADRID";"28002";"3";"CIUDAD JARDIN";"5";"CHAMARTIN";"442737";"4477374";"40.443167715156214";"-3.6765234233156017";"914 119 930";"";"";"/contenido/entidadesYorganismos/CentrosAtencionSocialMayores/ResidenciasApartamentosMayores"
144469;"Residencia para mayores Carabanchel";"";"";"Residencia de personas mayores dependientes.";"Metro: San Francisco (línea 11).  Bus: 108, 118, 121, 131, 47.";"";"3";"http://www.madrid.es/sites/v/index.jsp?vgnextchannel=bfa48ab43d6bb410VgnVCM100000171f5a0aRCRD&vgnextoid=7d9047048781c010VgnVCM1000000b205a0aRCRD";"ANTONIA RODRÍGUEZ SACRISTÁN";"CALLE";"V";"10";"";"";"";"";"MADRID";"MADRID";"28044";"6";"BUENAVISTA";"11";"CARABANCHEL";"436776";"4469400";"40.37278413216748";"-3.7447396410333784";"915 081 110";"";"";"/contenido/entidadesYorganismos/CentrosAtencionSocialMayores/ResidenciasApartamentosMayores"
10843492;"Residencia para mayores Casablanca El Viso";"";"";"Residencia de personas mayores mixta.";"Metro: República Argentina (línea 6), Cruz del Rayo (línea 9), Avenida de América (líneas 4, 6, 7 y 9).  Bus: C1, C2, 9, 16, 19, 51, 73.  Bicimad: Estaciones 140 (calle Velázquez, 130), 146 (calle María Francisca, 1).";"";"3";"http://www.madrid.es/sites/v/index.jsp?vgnextchannel=bfa48ab43d6bb410VgnVCM100000171f5a0aRCRD&vgnextoid=dc7ed32c8c1a7610VgnVCM1000001d4a900aRCRD";"JOAQUIN COSTA";"CALLE";"V";"36";"";"";"";"";"MADRID";"MADRID";"28002";"1";"EL VISO";"5";"CHAMARTIN";"442211";"4476919";"40.44091587367583";"-3.681395846835233";"913 728 102";"";"";"/contenido/entidadesYorganismos/CentrosAtencionSocialMayores/ResidenciasApartamentosMayores"
10843421;"Residencia para mayores Casablanca Madrid";"";"";"Residencia de personas mayores dependientes.";"Bus: 163, 162.";"";"3";"http://www.madrid.es/sites/v/index.jsp?vgnextchannel=bfa48ab43d6bb410VgnVCM100000171f5a0aRCRD&vgnextoid=6ba8d32c8c1a7610VgnVCM1000001d4a900aRCRD";"VICTORIA";"AVENIDA";"V";"36";"";"";"";"";"MADRID";"MADRID";"28023";"6";"EL PLANTIO";"9";"MONCLOA-ARAVACA";"430447";"4480138";"40.469011667612726";"-3.8204507019281078";"913 077 177";"";"";"/contenido/entidadesYorganismos/CentrosAtencionSocialMayores/ResidenciasApartamentosMayores"
25691;"Residencia para mayores Casasolar Santo Duque de Gandía";"";"";"Residencia de personas mayores dependientes.";"Bus: 41, 75, 46.";"";"3";"http://www.madrid.es/sites/v/index.jsp?vgnextchannel=bfa48ab43d6bb410VgnVCM100000171f5a0aRCRD&vgnextoid=beb832df1d51c010VgnVCM2000000c205a0aRCRD";"ANICETO MARINAS";"CALLE";"NUM";"114";"";"";"";"";"MADRID";"MADRID";"28008";"1";"CASA DE CAMPO";"9";"MONCLOA-ARAVACA";"437700";"4475971";"40.43203904160055";"-3.7345111534209243";"915 416 297";"";"";"/contenido/entidadesYorganismos/CentrosAtencionSocialMayores/ResidenciasApartamentosMayores"
5934038;"Residencia para mayores Caser Residencial Arturo Soria";"";"";"Residencia de personas mayores dependientes.";"Metro: Arturo Soria (línea 4).  Bus: 11, 122, 70.";"";"3";"http://www.madrid.es/sites/v/index.jsp?vgnextchannel=bfa48ab43d6bb410VgnVCM100000171f5a0aRCRD&vgnextoid=85e49045d97cd210VgnVCM2000000c205a0aRCRD";"PUERTO DE SANTA MARIA";"CALLE";"V";"15";"";"";"";"";"MADRID";"MADRID";"28043";"2";"PIOVERA";"16";"HORTALEZA";"444756";"4478374";"40.45418511529532";"-3.6515373182181325";"917 160 036";"";"";"/contenido/entidadesYorganismos/CentrosAtencionSocialMayores/ResidenciasApartamentosMayores"
10846569;"Residencia para mayores Caser Residencial Santa Hortensia";"";"";"Residencia de personas mayores mixta.";"Metro: Alfonso XIII (línea 4).  Bus: 114, 115.";"";"3";"http://www.madrid.es/sites/v/index.jsp?vgnextchannel=bfa48ab43d6bb410VgnVCM100000171f5a0aRCRD&vgnextoid=738c6ef4717a7610VgnVCM2000001f4a900aRCRD";"SANTA HORTENSIA";"CALLE";"V";"46";"";"";"";"";"MADRID";"MADRID";"28002";"2";"PROSPERIDAD";"5";"CHAMARTIN";"443736";"4477291";"40.444371437112046";"-3.663449318032633";"";"";"";"/contenido/entidadesYorganismos/CentrosAtencionSocialMayores/ResidenciasApartamentosMayores"
120027;"Residencia para mayores Castalia";"";"";"Residencia de personas mayores mixta.";"";"";"3";"http://www.madrid.es/sites/v/index.jsp?vgnextchannel=bfa48ab43d6bb410VgnVCM100000171f5a0aRCRD&vgnextoid=b889a328be81c010VgnVCM1000000b205a0aRCRD";"MADROÑOS";"AVENIDA";"V";"55";"";"";"";"";"MADRID";"MADRID";"28043";"2";"PIOVERA";"16";"HORTALEZA";"446187";"4478638";"40.45666617340227";"-3.6346712868526345";"913 574 747";"";"";"/contenido/entidadesYorganismos/CentrosAtencionSocialMayores/ResidenciasApartamentosMayores"
5934054;"Residencia para mayores Castellar";"";"";"Residencia de personas mayores dependientes.";"Metro: Villa de Vallecas (línea 1).  Bus: 103, 142, 54, 58, 143.  Cercanías Renfe: Vallecas (líneas C2, C7 y Regional).";"";"3";"http://www.madrid.es/sites/v/index.jsp?vgnextchannel=bfa48ab43d6bb410VgnVCM100000171f5a0aRCRD&vgnextoid=9b60d217ca7cd210VgnVCM2000000c205a0aRCRD";"SIERRA VIEJA";"CALLE";"V";"73";"";"";"";"";"MADRID";"MADRID";"28031";"1";"CASCO H.VALLECAS";"18";"VILLA DE VALLECAS";"447143";"4470033";"40.379199465889286";"-3.6226944853849266";"913 806 427";"";"";"/contenido/entidadesYorganismos/CentrosAtencionSocialMayores/ResidenciasApartamentosMayores"
5934071;"Residencia para mayores Centro Geriátrico Dos de Mayo";"";"";"Residencia de personas mayores dependientes.";"Metro: Noviciado (línea 2), Tribunal (líneas 1 y 10), Bilbao (líneas 1 y 4), San Bernardo (líneas 2 y 4).  Bus: 147, 3.  Bicimad: Estaciónes 12 (calle San Bernardo, 85), 11 (calle San Andrés, 18), 59 (plaza de Juan Pujol), 15 (calle San Vicente Ferrer, 64).";"";"3";"http://www.madrid.es/sites/v/index.jsp?vgnextchannel=bfa48ab43d6bb410VgnVCM100000171f5a0aRCRD&vgnextoid=86d6d217ca7cd210VgnVCM2000000c205a0aRCRD";"DAOIZ";"CALLE";"V";"8";"";"";"";"";"MADRID";"MADRID";"28004";"5";"UNIVERSIDAD";"1";"CENTRO";"440164";"4475405";"40.4271212405315";"-3.705398356411255";"913 604 831";"";"";"/contenido/entidadesYorganismos/CentrosAtencionSocialMayores/ResidenciasApartamentosMayores"
6724742;"Residencia para mayores Centro Geriátrico Hortaleza";"";"";"Residencia de personas mayores dependientes.";"Metro: Canillas (línea 4), Mar de Cristal (línea 4 y 8).  Bus: 120, 73.";"";"3";"http://www.madrid.es/sites/v/index.jsp?vgnextchannel=bfa48ab43d6bb410VgnVCM100000171f5a0aRCRD&vgnextoid=e9add96dd3eab310VgnVCM1000000b205a0aRCRD";"LAS PEDRO&amp;Ntilde;ERAS";"CALLE";"V";"38";"";"";"";"";"MADRID";"MADRID";"28043";"3";"CANILLAS";"16";"HORTALEZA";"446535";"4479703";"40.46628407022765";"-3.6306579914699073";"913 884 155";"";"";"/contenido/entidadesYorganismos/CentrosAtencionSocialMayores/ResidenciasApartamentosMayores"
11545208;"Residencia para mayores Comunidad Marías";"";"";"Residencia de personas mayores mixta.";"Metro: Eugenia de Montijo (línea 5).  Bus: 35, 34.";"";"3";"http://www.madrid.es/sites/v/index.jsp?vgnextchannel=bfa48ab43d6bb410VgnVCM100000171f5a0aRCRD&vgnextoid=42883fc00ea7d710VgnVCM1000001d4a900aRCRD";"NUESTRA SEÑORA DE FATIMA";"AVENIDA";"V";"100";"";"";"";"";"MADRID";"MADRID";"28047";"4";"VISTA ALEGRE";"11";"CARABANCHEL";"436414";"4470116";"40.37921018688434";"-3.74907361033606";"914 617 706";"";"";"/contenido/entidadesYorganismos/CentrosAtencionSocialMayores/ResidenciasApartamentosMayores"
10843503;"Residencia para mayores Concesol";"";"";"Residencia de personas mayores mixta.";"Bus: 11, 114, 70, 21.";"";"3";"http://www.madrid.es/sites/v/index.jsp?vgnextchannel=bfa48ab43d6bb410VgnVCM100000171f5a0aRCRD&vgnextoid=658fd32c8c1a7610VgnVCM1000001d4a900aRCRD";"CONDESA DE VENADITO";"CALLE";"V";"30";"";"";"";"";"MADRID";"MADRID";"28027";"5";"SAN PASCUAL";"15";"CIUDAD LINEAL";"444817";"4477459";"40.44596295748986";"-3.650724453252748";"913 200 354";"";"";"/contenido/entidadesYorganismos/CentrosAtencionSocialMayores/ResidenciasApartamentosMayores"
5874110;"Residencia para mayores Doctor González Bueno";"";"";"Residencia de personas mayores mixta.";"";"";"3";"http://www.madrid.es/sites/v/index.jsp?vgnextchannel=bfa48ab43d6bb410VgnVCM100000171f5a0aRCRD&vgnextoid=c6660179fc37c210VgnVCM2000000c205a0aRCRD";"COLMENAR VIEJO";"CARRETERA";"V";"13";"";"";"";"KILÓMETRO 13";"MADRID";"MADRID";"28049";"";"";"";"FUENCARRAL-EL PARDO";"";"";"40.52527086992908";"-3.6876376443174785";"917 346 300";"";"";"/contenido/entidadesYorganismos/CentrosAtencionSocialMayores/ResidenciasApartamentosMayores"
136645;"Residencia para mayores Domusvi Arturo Soria";"";"";"Residencia de personas mayores dependientes.";"Bus: 87, 72, 9, 73.";"";"3";"http://www.madrid.es/sites/v/index.jsp?vgnextchannel=bfa48ab43d6bb410VgnVCM100000171f5a0aRCRD&vgnextoid=5e892189cb81c010VgnVCM1000000b205a0aRCRD";"DUQUESA DE CASTREJON";"CALLE";"V";"18";"";"";"";"";"MADRID";"MADRID";"28033";"4";"PINAR DEL REY";"16";"HORTALEZA";"444067";"4479430";"40.463660379232216";"-3.6597420596323365";"913 001 390";"";"";"/contenido/entidadesYorganismos/CentrosAtencionSocialMayores/ResidenciasApartamentosMayores"
8154152;"Residencia para mayores Don Bosco";"";"";"Residencia de personas mayores dependientes.";"Metro: Barajas (Línea 8).  Bus: 151.";"";"3";"http://www.madrid.es/sites/v/index.jsp?vgnextchannel=bfa48ab43d6bb410VgnVCM100000171f5a0aRCRD&vgnextoid=d0fdeb95b35be410VgnVCM1000000b205a0aRCRD";"PLAYA DE RIAZOR";"CALLE";"V";"39";"";"";"";"";"MADRID";"MADRID";"28042";"4";"TIMON";"21";"BARAJAS";"450373";"4480737";"40.475837310339884";"-3.5854617044064208";"913 055 087";"";"";"/contenido/entidadesYorganismos/CentrosAtencionSocialMayores/ResidenciasApartamentosMayores"
10846495;"Residencia para mayores Edalia Arturo Soria";"";"";"Residencia de personas mayores mixta.";"Metro: Manoteras (línea 4).  Bus: 107, 29, 7.";"";"3";"http://www.madrid.es/sites/v/index.jsp?vgnextchannel=bfa48ab43d6bb410VgnVCM100000171f5a0aRCRD&vgnextoid=8c564a85eb6a7610VgnVCM2000001f4a900aRCRD";"ARTURO SORIA";"CALLE";"V";"278";"";"";"";"";"MADRID";"MADRID";"28033";"9";"COSTILLARES";"15";"CIUDAD LINEAL";"443461";"4480284";"40.471319698852405";"-3.6669667601125333";"917 662 069";"";"";"/contenido/entidadesYorganismos/CentrosAtencionSocialMayores/ResidenciasApartamentosMayores"
118918;"Residencia para mayores El Pardo de Aravaca";"";"";"Residencia de personas mayores dependientes.";"Bus: 161.";"";"3";"http://www.madrid.es/sites/v/index.jsp?vgnextchannel=bfa48ab43d6bb410VgnVCM100000171f5a0aRCRD&vgnextoid=9c8aa328be81c010VgnVCM1000000b205a0aRCRD";"DARIO APARICIO";"CALLE";"NUM";"33";"";"";"";"";"MADRID";"MADRID";"28023";"5";"VALDEMARIN";"9";"MONCLOA-ARAVACA";"434818";"4480260";"40.470463730828584";"-3.7689266557356524";"917 400 490";"";"";"/contenido/entidadesYorganismos/CentrosAtencionSocialMayores/ResidenciasApartamentosMayores"
5934100;"Residencia para mayores El Santo Cristo del Nogal";"";"";"Residencia de personas mayores dependientes.";"Metro: Esperanza (línea 4).  Bus: 120, 122.";"";"3";"http://www.madrid.es/sites/v/index.jsp?vgnextchannel=bfa48ab43d6bb410VgnVCM100000171f5a0aRCRD&vgnextoid=1d78b014bd7cd210VgnVCM2000000c205a0aRCRD";"ULISES";"CALLE";"V";"59";"Bajo";"";"";"";"MADRID";"MADRID";"28043";"3";"CANILLAS";"16";"HORTALEZA";"444864";"4478856";"40.45853438842005";"-3.6503055512229627";"913 883 701";"";"";"/contenido/entidadesYorganismos/CentrosAtencionSocialMayores/ResidenciasApartamentosMayores"
11542758;"Residencia para mayores El Tejar";"";"";"Residencia de personas mayores dependientes.";"Metro: Pinar del Rey (líneas 8).  Bus: 73.";"";"3";"http://www.madrid.es/sites/v/index.jsp?vgnextchannel=bfa48ab43d6bb410VgnVCM100000171f5a0aRCRD&vgnextoid=c206aa00b307d710VgnVCM2000001f4a900aRCRD";"AGUSTIN CALVO";"CALLE";"V";"15";"";"";"";"";"MADRID";"MADRID";"28043";"3";"CANILLAS";"16";"HORTALEZA";"444824";"4479465";"40.464030759667054";"-3.6508073707029003";"917 598 456";"";"";"/contenido/entidadesYorganismos/CentrosAtencionSocialMayores/ResidenciasApartamentosMayores"
11282;"Residencia para mayores Fausta Elorz";"";"";"Residencia de personas mayores mixta.";"Metro: Diego de León (líneas 4, 5 y 6).  Bus: 61, 26, 1, 74.  Bicimad: Estación 144 (calle Juan Bravo, 50).";"";"3";"http://www.madrid.es/sites/v/index.jsp?vgnextchannel=bfa48ab43d6bb410VgnVCM100000171f5a0aRCRD&vgnextoid=0198d4985261c010VgnVCM1000000b205a0aRCRD";"CONDE DE PEÑALVER";"CALLE";"NUM";"53";"";"";"";"";"MADRID";"MADRID";"28006";"5";"LISTA";"4";"SALAMANCA";"442718";"4475896";"40.43172412639003";"-3.6753476638865843";"913 099 650";"";"";"/contenido/entidadesYorganismos/CentrosAtencionSocialMayores/ResidenciasApartamentosMayores"
54496;"Residencia para mayores Geriasa Madrid";"";"";"Residencia de personas mayores mixta.";"Metro: O'Donnell (línea 6), Sainz de Baranda (líneas 6 y 9).  Bus: 143, 156, 2, 30, 56, 203, 28.  Bicimad: Estación 63 (calle Ibiza, 62).";"";"3";"http://www.madrid.es/sites/v/index.jsp?vgnextchannel=bfa48ab43d6bb410VgnVCM100000171f5a0aRCRD&vgnextoid=4fabf0bde551c010VgnVCM2000000c205a0aRCRD";"DOCTOR ESQUERDO";"CALLE";"NUM";"63";"";"";"";"";"MADRID";"MADRID";"28007";"3";"ESTRELLA";"3";"RETIRO";"443255";"4474534";"40.419500335311376";"-3.66889555190094";"915 572 230 / 696 143 320 (noches)";"";"";"/contenido/entidadesYorganismos/CentrosAtencionSocialMayores/ResidenciasApartamentosMayores"
54673;"Residencia para mayores Geriatel";"";"";"Residencia de personas mayores dependientes.";"Metro:  Eugenia de Montijo (línea 5).    Bus: 31.";"";"3";"http://www.madrid.es/sites/v/index.jsp?vgnextchannel=bfa48ab43d6bb410VgnVCM100000171f5a0aRCRD&vgnextoid=d1cbf0bde551c010VgnVCM2000000c205a0aRCRD";"OCA&amp;Ntilde;A";"CALLE";"V";"193";"";"";"";"";"MADRID";"MADRID";"28047";"4";"ALUCHE";"10";"LATINA";"436040";"4471214";"40.38906916341437";"-3.753582626313811";"915 099 884";"";"";"/contenido/entidadesYorganismos/CentrosAtencionSocialMayores/ResidenciasApartamentosMayores"
4813951;"Residencia para mayores Goya";"";"";"Residencia de personas mayores autónomas.";"Metro: O&amp;acute;Donnell (línea 6), Manuel Becerra (líneas 2 y 6).  Bus: 30, 143, 156, 2, 56, 71, C2, C1.  Bicimad: Estaciones 183 (calle Hermosilla, 135), 101 (calle Jorge Juan, 131).";"";"3";"http://www.madrid.es/sites/v/index.jsp?vgnextchannel=bfa48ab43d6bb410VgnVCM100000171f5a0aRCRD&vgnextoid=895361b976058110VgnVCM1000000b205a0aRCRD";"GOYA";"CALLE";"V";"120";"";"";"";"";"MADRID";"MADRID";"28009";"2";"GOYA";"4";"SALAMANCA";"443241";"4475068";"40.424314176778246";"-3.6690947204071613";"912 761 000";"";"";"/contenido/entidadesYorganismos/CentrosAtencionSocialMayores/ResidenciasApartamentosMayores"
54680;"Residencia para mayores Gravina";"";"";"Residencia de personas mayores dependientes.";"Metro: Chueca (línea 5).  Bus: 37, 3.  Cercanías Renfe: Recoletos (líneas C1, C2, C7, C10 y Regional).  Bicimad: Estaciones 58 (calle Augusto Figueroa, 33), 19 (calle Prim, 2), 26 (plaza de las Salesas, 7).  Aparcamientos: Gravina, 21(89); Mercado San Antón (94), Libertad, Garaje Piamonte (96).";"";"3";"http://www.madrid.es/sites/v/index.jsp?vgnextchannel=bfa48ab43d6bb410VgnVCM100000171f5a0aRCRD&vgnextoid=d28c444a2951c010VgnVCM2000000c205a0aRCRD";"GRAVINA";"CALLE";"NUM";"20";"";"";"";"";"MADRID";"MADRID";"28004";"4";"JUSTICIA";"1";"CENTRO";"441038";"4475103";"40.4225905283604";"-3.6963450118554566";"915 230 312";"";"";"/contenido/entidadesYorganismos/CentrosAtencionSocialMayores/ResidenciasApartamentosMayores"
11340;"Residencia para mayores Hermanitas Ancianos Desamparados";"";"";"Residencia de personas mayores mixta.";"Metro: Serrano (línea 4), Velázquez (línea 4), Retiro (línea 2), Príncipe de Vergara (línea 2 y 9).  Bus: 1, 19, 51, 74, 9.  Bicimad: Estación 95 (calle Claudio Coello, 109).  Cercanías Renfe: Recoletos (líneas C1, C2, C7, C10 y Regional).";"";"3";"http://www.madrid.es/sites/v/index.jsp?vgnextchannel=bfa48ab43d6bb410VgnVCM100000171f5a0aRCRD&vgnextoid=105072081661c010VgnVCM1000000b205a0aRCRD";"LAGASCA";"CALLE";"V";"17";"";"";"";"";"MADRID";"MADRID";"28001";"1";"RECOLETOS";"4";"SALAMANCA";"441825";"4474915";"40.42283603192385";"-3.6857667366965634";"914 316 201";"";"";"/contenido/entidadesYorganismos/CentrosAtencionSocialMayores/ResidenciasApartamentosMayores"
10843533;"Residencia para mayores Jardines de Sabatini";"";"";"Residencia de personas mayores mixta.";"Metro: Príncipe Pío (líneas 6, 10 y Ramal), Plaza de España (líneas 3 y 10).   Bus: 138, 25, 39, 46, 62, 75, C2, C1.  Cercanías Renfe: Príncipe Pío (líneas C1, C7, C10 y Regional).";"";"3";"http://www.madrid.es/sites/v/index.jsp?vgnextchannel=bfa48ab43d6bb410VgnVCM100000171f5a0aRCRD&vgnextoid=1190d32c8c1a7610VgnVCM1000001d4a900aRCRD";"ARRIAZA";"CALLE";"V";"16";"";"";"";"";"MADRID";"MADRID";"28008";"2";"ARGUELLES";"9";"MONCLOA-ARAVACA";"439243";"4474813";"40.42173232852591";"-3.716198181415369";"915 475 521";"";"";"/contenido/entidadesYorganismos/CentrosAtencionSocialMayores/ResidenciasApartamentosMayores"
165325;"Residencia para mayores Jesús Nazareno y los Dolores";"";"";"Residencia de personas mayores mixta.";"Metro: Chamartín (líneas 1 y 10).  Bus: 147, 124, 134, 135, 67, 173, 175, 176, 178.  Cercanías Renfe: Chamartín (líneas C1, C2, C3, C3a, C4, C4a, C4b, C7, C8, C10 y Regional).  Bicimad: Estación 248 (calle Sinesio Delgado, 2).";"";"3";"http://www.madrid.es/sites/v/index.jsp?vgnextchannel=bfa48ab43d6bb410VgnVCM100000171f5a0aRCRD&vgnextoid=37618f90a581c010VgnVCM1000000b205a0aRCRD";"MAGNOLIAS";"CALLE";"V";"105";"";"";"";"";"MADRID";"MADRID";"28029";"4";"ALMENARA";"6";"TETUAN";"441548";"4480585";"40.47389557151447";"-3.6895598215503194";"913 155 545";"";"";"/contenido/entidadesYorganismos/CentrosAtencionSocialMayores/ResidenciasApartamentosMayores"
10290278;"Residencia para mayores Josefa Segovia";"";"";"Residencia de personas mayores mixta.";"Metro:  Vicente Aleixandre (línea 6), Islas Filipinas (línea 7).   Bus: C1, C2.  Bicimad: Estación 244 (calle Isaac Peral, 44).";"";"3";"http://www.madrid.es/sites/v/index.jsp?vgnextchannel=bfa48ab43d6bb410VgnVCM100000171f5a0aRCRD&vgnextoid=f026170b55cca510VgnVCM1000001d4a900aRCRD";"JULIAN ROMEA";"CALLE";"V";"24";"";"";"";"";"MADRID";"MADRID";"28003";"6";"VALLEHERMOSO";"7";"CHAMBERI";"439073";"4477168";"40.44293221772059";"-3.718424987022936";"915 357 957";"";"";"/contenido/entidadesYorganismos/CentrosAtencionSocialMayores/ResidenciasApartamentosMayores"
165328;"Residencia para mayores Juan XXIII (Aravaca)";"Residencia de personas mayores dependientes.";"";"";"Bus: 162.";"";"1";"http://www.madrid.es/sites/v/index.jsp?vgnextchannel=bfa48ab43d6bb410VgnVCM100000171f5a0aRCRD&vgnextoid=c9718f90a581c010VgnVCM1000000b205a0aRCRD";"PROCION";"CALLE";"V";"10";"";"";"";"";"MADRID";"MADRID";"28023";"5";"VALDEMARIN";"9";"MONCLOA-ARAVACA";"432148";"4479894";"40.46695653201016";"-3.800357931119678";"913 729 607";"";"";"/contenido/entidadesYorganismos/CentrosAtencionSocialMayores/ResidenciasApartamentosMayores"
5937452;"Residencia para mayores La Guindalera";"";"";"";"Metro: Cartagena (línea 7).  Bus: 74, 1, 114, 115, 122, 72.  Bicimad: Estación 241 (avenida de Camilo José Cela, 23).";"";"3";"http://www.madrid.es/sites/v/index.jsp?vgnextchannel=bfa48ab43d6bb410VgnVCM100000171f5a0aRCRD&vgnextoid=528e21bff81ed210VgnVCM1000000b205a0aRCRD";"PINTOR MORENO CARBONERO";"CALLE";"V";"15";"";"";"";"";"MADRID";"MADRID";"28028";"4";"GUINDALERA";"4";"SALAMANCA";"443168";"4476621";"40.438295239347056";"-3.6700957939380965";"917 131 770";"";"";"/contenido/entidadesYorganismos/CentrosAtencionSocialMayores/ResidenciasApartamentosMayores"
11542839;"Residencia para mayores La Nueva Florida";"";"";"Residencia de personas mayores mixta.";"Bus:   162, 163.";"";"3";"http://www.madrid.es/sites/v/index.jsp?vgnextchannel=bfa48ab43d6bb410VgnVCM100000171f5a0aRCRD&vgnextoid=1cfb55af6807d710VgnVCM2000001f4a900aRCRD";"CASA QUEMADA";"AVENIDA";"V";"4";"";"";"";"";"MADRID";"MADRID";"28023";"6";"EL PLANTIO";"9";"MONCLOA-ARAVACA";"429102";"4480925";"40.47598843588856";"-3.836401400340773";"622 946 670";"";"";"/contenido/entidadesYorganismos/CentrosAtencionSocialMayores/ResidenciasApartamentosMayores"
11490;"Residencia para mayores La Paz";"";"";"Residencia de personas mayores dependientes.";"Metro: O'Donnell (línea 6).  Bus: 143, 156, 2, 30, 56, 203, 28, 71.  Bicimad: Estación 101 (calle Jorge Juan, 131).";"";"3";"http://www.madrid.es/sites/v/index.jsp?vgnextchannel=bfa48ab43d6bb410VgnVCM100000171f5a0aRCRD&vgnextoid=83a472081661c010VgnVCM1000000b205a0aRCRD";"DOCTOR ESQUERDO";"CALLE";"V";"44";"";"";"";"";"MADRID";"MADRID";"28007";"4";"IBIZA";"3";"RETIRO";"443220";"4474654";"40.4205803581753";"-3.66930055090613";"914 090 943";"";"";"/contenido/entidadesYorganismos/CentrosAtencionSocialMayores/ResidenciasApartamentosMayores"
11485;"Residencia para mayores La Purísima Concepción";"";"";"Residencia de personas mayores mixta.";"Metro: Pacifico (líneas 1 y 6).  Bus: 10, 136, 56, 8, 310, 141, 24, 37, 54, 57, 156.  Bicimad: Estación 78 (calle Cerro de la Plata, 2).";"";"3";"http://www.madrid.es/sites/v/index.jsp?vgnextchannel=bfa48ab43d6bb410VgnVCM100000171f5a0aRCRD&vgnextoid=8d3072081661c010VgnVCM1000000b205a0aRCRD";"CIUDAD DE BARCELONA";"AVENIDA";"V";"85";"";"";"";"";"MADRID";"MADRID";"28007";"2";"ADELFAS";"3";"RETIRO";"442874";"4472433";"40.40054880475764";"-3.673179083728444";"915 517 844";"";"";"/contenido/entidadesYorganismos/CentrosAtencionSocialMayores/ResidenciasApartamentosMayores"
10846585;"Residencia para mayores La Santina";"";"";"Residencia de personas mayores mixta.";"Metro: Canillejas (línea 5).  Bus: 165, 200, 151, 140, 101, 77.";"";"3";"http://www.madrid.es/sites/v/index.jsp?vgnextchannel=bfa48ab43d6bb410VgnVCM100000171f5a0aRCRD&vgnextoid=efbd6ef4717a7610VgnVCM2000001f4a900aRCRD";"ISLA DE CUBA";"CALLE";"V";"2";"";"";"";"";"MADRID";"MADRID";"28042";"1";"PALOMAS";"16";"HORTALEZA";"448228";"4477893";"40.45008590218858";"-3.6105351800926355";"619 241 345";"";"";"/contenido/entidadesYorganismos/CentrosAtencionSocialMayores/ResidenciasApartamentosMayores"
5934893;"Residencia para mayores Las Rosas";"";"";"Residencia de personas mayores mixta.";"Metro: Avenida de Guadalajara (línea 2).  Bus: 4, 153, 167, 48, 38.";"";"3";"http://www.madrid.es/sites/v/index.jsp?vgnextchannel=bfa48ab43d6bb410VgnVCM100000171f5a0aRCRD&vgnextoid=3aee4e254bccd210VgnVCM1000000b205a0aRCRD";"BUTRON";"CALLE";"V";"14";"";"";"";"";"MADRID";"MADRID";"28022";"5";"ROSAS";"20";"SAN BLAS-CANILLEJAS";"448306";"4475105";"40.424973382219775";"-3.6094064730011226";"913 130 954";"";"";"/contenido/entidadesYorganismos/CentrosAtencionSocialMayores/ResidenciasApartamentosMayores"
54705;"Residencia para mayores Los Enebros";"";"";"Residencia de personas mayores dependientes.";"Bus: 163.";"";"3";"http://www.madrid.es/sites/v/index.jsp?vgnextchannel=bfa48ab43d6bb410VgnVCM100000171f5a0aRCRD&vgnextoid=32fc444a2951c010VgnVCM2000000c205a0aRCRD";"VICTORIA";"AVENIDA";"NUM";"120";"";"";"";"";"MADRID";"MADRID";"28023";"6";"EL PLANTIO";"9";"MONCLOA-ARAVACA";"429407";"4480665";"40.47366086213291";"-3.8327841462237755";"913 076 422";"";"";"/contenido/entidadesYorganismos/CentrosAtencionSocialMayores/ResidenciasApartamentosMayores"
119038;"Residencia para mayores Los Nogales Pacífico";"";"";"Residencia de personas mayores mixta.";"Metro: Pacífico (líneas 1 y 6).  Bus: 10, 136, 56, 8, 310, 141, 24, 37, 54, 57, 156.    Bicimad: Estación 78 (calle Cerro de la Plata, 2).";"";"3";"http://www.madrid.es/sites/v/index.jsp?vgnextchannel=bfa48ab43d6bb410VgnVCM100000171f5a0aRCRD&vgnextoid=2bc7ad452e81c010VgnVCM1000000b205a0aRCRD";"CERRO DE LA PLATA";"CALLE";"V";"3";"";"";"";"";"MADRID";"MADRID";"28007";"2";"ADELFAS";"3";"RETIRO";"442752";"4472399";"40.40023224093682";"-3.6746140603606947";"914 341 940 / 914 672 122";"";"";"/contenido/entidadesYorganismos/CentrosAtencionSocialMayores/ResidenciasApartamentosMayores"
5782880;"Residencia para mayores Los Nogales Vista Alegre";"";"";"Residencia de personas mayores dependientes.";"Metro: Oporto (líneas 5 y 6).  Bus: 34, 35, 118.";"";"3";"http://www.madrid.es/sites/v/index.jsp?vgnextchannel=bfa48ab43d6bb410VgnVCM100000171f5a0aRCRD&vgnextoid=d5a7143f0e56a210VgnVCM1000000b205a0aRCRD";"VISTA ALEGRE";"CALLE";"V";"4";"";"";"";"";"MADRID";"MADRID";"28019";"3";"SAN ISIDRO";"11";"CARABANCHEL";"437936";"4471337";"40.39032529725689";"-3.7312582710965114";"913 648 252";"";"";"/contenido/entidadesYorganismos/CentrosAtencionSocialMayores/ResidenciasApartamentosMayores"
11506;"Residencia para mayores Lusanz";"";"";"Residencia de personas mayores dependientes.";"Bus: 64, 137, 82.";"";"3";"http://www.madrid.es/sites/v/index.jsp?vgnextchannel=bfa48ab43d6bb410VgnVCM100000171f5a0aRCRD&vgnextoid=d5c572081661c010VgnVCM1000000b205a0aRCRD";"AURORA";"CALLE";"V";"9";"";"";"";"";"MADRID";"MADRID";"28035";"4";"VALDEZARZA";"9";"MONCLOA-ARAVACA";"438745";"4479564";"40.464494398994624";"-3.7225158653311903";"651 887 814";"";"";"/contenido/entidadesYorganismos/CentrosAtencionSocialMayores/ResidenciasApartamentosMayores"
7622812;"Residencia para mayores Madre María Rafaela";"";"";"Residencia de personas mayores mixta.";"Metro: Esperanza (línea 4).  Bus: 120, 122.";"";"3";"http://www.madrid.es/sites/v/index.jsp?vgnextchannel=bfa48ab43d6bb410VgnVCM100000171f5a0aRCRD&vgnextoid=db9c7ff5f4538410VgnVCM1000000b205a0aRCRD";"LIEBRE";"CALLE";"V";"7";"";"";"";"";"MADRID";"MADRID";"28043";"3";"CANILLAS";"16";"HORTALEZA";"444881";"4478799";"40.45803325396946";"-3.6500781679260252";"914 266 124";"";"";"/contenido/entidadesYorganismos/CentrosAtencionSocialMayores/ResidenciasApartamentosMayores"
131561;"Residencia para mayores Manoteras";"";"";"Residencia de personas mayores dependientes.";"Metro: Virgen del Cortijo (línea ML1).  Bus: 174, 150.";"";"3";"http://www.madrid.es/sites/v/index.jsp?vgnextchannel=bfa48ab43d6bb410VgnVCM100000171f5a0aRCRD&vgnextoid=c46015a11a81c010VgnVCM1000000b205a0aRCRD";"OÑA";"CALLE";"V";"3";"";"";"";"";"MADRID";"MADRID";"28050";"6";"VALDEFUENTES";"16";"HORTALEZA";"443303";"4482226";"40.48879682820091";"-3.6690167058230916";"917 665 222";"";"";"/contenido/entidadesYorganismos/CentrosAtencionSocialMayores/ResidenciasApartamentosMayores"
11289;"Residencia para mayores María Auxiliadora";"";"";"Residencia de personas mayores dependientes.";"Metro: Carabanchel Alto (línea 11).  Bus: 121, 131, 47, 139, 35, 34.";"";"3";"http://www.madrid.es/sites/v/index.jsp?vgnextchannel=bfa48ab43d6bb410VgnVCM100000171f5a0aRCRD&vgnextoid=9fb75a0f8161c010VgnVCM1000000b205a0aRCRD";"DATIL";"CALLE";"V";"1";"";"";"";"";"MADRID";"MADRID";"28025";"5";"PUERTA BONITA";"11";"CARABANCHEL";"436398";"4469854";"40.37684520852269";"-3.74923718734651";"914 651 823";"";"";"/contenido/entidadesYorganismos/CentrosAtencionSocialMayores/ResidenciasApartamentosMayores"
21215;"Residencia para mayores María Inmaculada";"";"";"Residencia de personas mayores mixta.";"Metro: Cartagena (línea 7), Avenida de América (línea 4, 6, 7 y 9).  Bus: 1, 72.  Bicimad: Estación 195 (calle Padre Indalecio Hernández, 1).";"";"3";"http://www.madrid.es/sites/v/index.jsp?vgnextchannel=bfa48ab43d6bb410VgnVCM100000171f5a0aRCRD&vgnextoid=747832df1d51c010VgnVCM2000000c205a0aRCRD";"CARTAGENA";"CALLE";"V";"120";"";"";"";"";"MADRID";"MADRID";"28028";"";"PROSPERIDAD";"";"SALAMANCA";"442807";"4476896";"40.44073881628378";"-3.6743766651309633";"915 194 170";"";"";"/contenido/entidadesYorganismos/CentrosAtencionSocialMayores/ResidenciasApartamentosMayores"
5937448;"Residencia para mayores Mi Casa Hermanitas de los Pobres";"";"";"Residencia de personas mayores mixta.";"Metro: O' Donnell (línea 6).  Bus: 143, 156, 2,30, 56, 71, 203, 28, C2.  Bicimad: Estación 101 (calle Jorge Juan, 131).";"";"3";"http://www.madrid.es/sites/v/index.jsp?vgnextchannel=bfa48ab43d6bb410VgnVCM100000171f5a0aRCRD&vgnextoid=0b9a21bff81ed210VgnVCM1000000b205a0aRCRD";"DOCTOR ESQUERDO";"CALLE";"V";"49";"";"";"";"";"MADRID";"MADRID";"28028";"3";"FUENTE DEL BERRO";"4";"SALAMANCA";"443278";"4474852";"40.422366616315855";"-3.668652819699054";"915 742 988";"";"";"/contenido/entidadesYorganismos/CentrosAtencionSocialMayores/ResidenciasApartamentosMayores"
5934112;"Residencia para mayores Miraflores II";"";"";"Residencia de personas mayores dependientes.";"Metro: Arturo Soria (línea 4).  Bus: 120, 122.";"";"3";"http://www.madrid.es/sites/v/index.jsp?vgnextchannel=bfa48ab43d6bb410VgnVCM100000171f5a0aRCRD&vgnextoid=5d82b014bd7cd210VgnVCM2000000c205a0aRCRD";"ULISES";"CALLE";"V";"44";"";"";"";"";"MADRID";"MADRID";"28043";"3";"CANILLAS";"16";"HORTALEZA";"444707";"4478782";"40.457872757799656";"-3.6521335227204434";"913 004 442";"";"";"/contenido/entidadesYorganismos/CentrosAtencionSocialMayores/ResidenciasApartamentosMayores"
71057;"Residencia para mayores Nuestra Señora de Valverde";"";"";"Residencia de personas mayores dependientes.";"Metro: Puente de Vallecas (línea 1), Méndez Álvaro (línea 6).  Bus: 113, 102, 148, 8.  Cercanías Renfe: Méndez Álfaro (líneas C1, C5, C7 y C10).";"";"3";"http://www.madrid.es/sites/v/index.jsp?vgnextchannel=bfa48ab43d6bb410VgnVCM100000171f5a0aRCRD&vgnextoid=8abb5cee4051c010VgnVCM2000000c205a0aRCRD";"CONVENIO";"CALLE";"NUM";"7";"";"";"";"";"MADRID";"MADRID";"28053";"2";"SAN DIEGO";"13";"PUENTE DE VALLECAS";"442935";"4471642";"40.39342580396893";"-3.67239621556947";"914 777 183 / 913 024 135";"";"";"/contenido/entidadesYorganismos/CentrosAtencionSocialMayores/ResidenciasApartamentosMayores"
11275;"Residencia para mayores Nuestra Señora del Carmen";"";"";"Residencia de personas mayores mixta.";"Cercanías Renfe: Cantoblanco (líneas C4, C4a, C4b).";"";"3";"http://www.madrid.es/sites/v/index.jsp?vgnextchannel=bfa48ab43d6bb410VgnVCM100000171f5a0aRCRD&vgnextoid=4c09d4985261c010VgnVCM1000000b205a0aRCRD";"CANTO BLANCO";"CARRETERA";"V";"3";"";"";"";"";"MADRID";"MADRID";"28049";"8";"EL GOLOSO";"8";"FUENCARRAL-EL PARDO";"441170";"4487845";"40.539321220496014";"-3.694552935332427";"917 343 450";"";"";"/contenido/entidadesYorganismos/CentrosAtencionSocialMayores/ResidenciasApartamentosMayores"
5935158;"Residencia para mayores Nuestra Señora del Perpetuo Socorro ACI";"";"";"Residencia de personas mayores dependientes.";"Metro: Palos de la Frontera (línea 3), Atocha Renfe (línea 1).  Bus: 102, 8.  Cercanías Renfe: Madrid Puerta de Atocha (líneas C1, C2, C3, C4, C4a,C4b, C5, C7, C10 y Regional).  Bicimad: Estaciones 118 (calle Juan Martín el Empecinado, 16), 119 (calle Méndez Álvaro, 11).";"";"3";"http://www.madrid.es/sites/v/index.jsp?vgnextchannel=bfa48ab43d6bb410VgnVCM100000171f5a0aRCRD&vgnextoid=33bc11738fccd210VgnVCM2000000c205a0aRCRD";"ANCORA";"CALLE";"V";"42";"";"";"";"";"MADRID";"MADRID";"28045";"6";"PALOS DE MOGUER";"2";"ARGANZUELA";"441569";"4472670";"40.40259186273276";"-3.6885850317401925";"915 060 560";"";"";"/contenido/entidadesYorganismos/CentrosAtencionSocialMayores/ResidenciasApartamentosMayores"
165304;"Residencia para mayores Nuestra Señora del Pilar";"";"";"Residencia de personas mayores dependientes.";"Metro: Canillejas (línea 5).  Bus: 48.";"";"3";"http://www.madrid.es/sites/v/index.jsp?vgnextchannel=bfa48ab43d6bb410VgnVCM100000171f5a0aRCRD&vgnextoid=cbc38f90a581c010VgnVCM1000000b205a0aRCRD";"ESFINGE";"CALLE";"V";"34";"";"";"";"";"MADRID";"MADRID";"28022";"7";"CANILLEJAS";"20";"SAN BLAS-CANILLEJAS";"448268";"4477238";"40.444188926509554";"-3.6100118002182406";"917 411 762";"";"";"/contenido/entidadesYorganismos/CentrosAtencionSocialMayores/ResidenciasApartamentosMayores"
4605768;"Residencia para mayores Orpea Buenavista";"";"";"Residencia de personas mayores dependientes.";"Metro: San Francisco (línea 11).  Bus: 108, 118, 47, 121, 131, 155.";"";"3";"http://www.madrid.es/sites/v/index.jsp?vgnextchannel=bfa48ab43d6bb410VgnVCM100000171f5a0aRCRD&vgnextoid=b328f7e6c1763110VgnVCM1000000b205a0aRCRD";"ANTONIA RODRÍGUEZ SACRISTÁN";"CALLE";"V";"14";"";"";"";"";"MADRID";"MADRID";"28044";"6";"BUENAVISTA";"11";"CARABANCHEL";"436918";"4469413";"40.372936906997175";"-3.7433984826996323";"915 110 420";"";"";"/contenido/entidadesYorganismos/CentrosAtencionSocialMayores/ResidenciasApartamentosMayores"
165393;"Residencia para mayores Orpea Madrid Aravaca";"";"";"Residencia de personas mayores mixta.";"Bus: 161.  Cercanías Renfe: Aravaca (líneas C7 y C10).";"";"3";"http://www.madrid.es/sites/v/index.jsp?vgnextchannel=bfa48ab43d6bb410VgnVCM100000171f5a0aRCRD&vgnextoid=9a768f90a581c010VgnVCM1000000b205a0aRCRD";"TALGO";"AVENIDA";"V";"53";"";"";"";"";"MADRID";"MADRID";"28023";"7";"ARAVACA";"9";"MONCLOA-ARAVACA";"433820";"4477645";"40.44682813370449";"-3.780405894814089";"913 878 790";"";"";"/contenido/entidadesYorganismos/CentrosAtencionSocialMayores/ResidenciasApartamentosMayores"
5935095;"Residencia para mayores Orpea Madrid Ferraz";"";"";"Residencia de personas mayores dependientes.";"Metro: Arg&amp;uuml;elles (líneas 3, 4 y 6).  Bus: 62, 74, 21.  Bicimad: Estación 117 (calle Altamirano, 24).  Aparcamiento: Marqués de Urquijo (63) entre calle Princesa y Juan Álvarez Mendizábal.";"";"3";"http://www.madrid.es/sites/v/index.jsp?vgnextchannel=bfa48ab43d6bb410VgnVCM100000171f5a0aRCRD&vgnextoid=236911738fccd210VgnVCM2000000c205a0aRCRD";"FERRAZ";"CALLE";"V";"92";"";"";"";"";"MADRID";"MADRID";"28008";"2";"ARGUELLES";"9";"MONCLOA-ARAVACA";"438809";"4475793";"40.43052695252645";"-3.72140852096694";"915 442 248";"";"";"/contenido/entidadesYorganismos/CentrosAtencionSocialMayores/ResidenciasApartamentosMayores"
5934083;"Residencia para mayores Orpea Madrid Loreto";"";"";"Residencia de personas mayores dependientes.";"Metro: Guzman El Bueno (línea 6 y 7).  Bus: C2, F, 45, 2, C1.  Bicimad: Estación 256 (calle Beatriz de Bobadilla, 2).";"";"3";"http://www.madrid.es/sites/v/index.jsp?vgnextchannel=bfa48ab43d6bb410VgnVCM100000171f5a0aRCRD&vgnextoid=331ca2bedb7cd210VgnVCM2000000c205a0aRCRD";"REINA VICTORIA";"AVENIDA";"V";"62";"";"";"";"";"MADRID";"MADRID";"28003";"3";"CIUDAD UNIVERSITARIA";"9";"MONCLOA-ARAVACA";"439520";"4477547";"40.446379719291635";"-3.713193792122367";"915 357 716";"";"";"/contenido/entidadesYorganismos/CentrosAtencionSocialMayores/ResidenciasApartamentosMayores"
5782769;"Residencia para mayores Orpea Madrid Valdemarín";"";"";"Residencia de personas mayores dependientes.";"Bus: 161, 162.";"";"3";"http://www.madrid.es/sites/v/index.jsp?vgnextchannel=bfa48ab43d6bb410VgnVCM100000171f5a0aRCRD&vgnextoid=d82bd5d90c56a210VgnVCM1000000b205a0aRCRD";"BLANCA DE CASTILLA";"CALLE";"V";"8";"";"";"";"";"MADRID";"MADRID";"28023";"5";"VALDEMARIN";"9";"MONCLOA-ARAVACA";"433614";"4479696";"40.46527880859158";"-3.7830573961019955";"917 400 566";"";"";"/contenido/entidadesYorganismos/CentrosAtencionSocialMayores/ResidenciasApartamentosMayores"
10843434;"Residencia para mayores Orpea Mirasierra";"";"";"Residencia de personas mayores dependientes.";"Metro: Mirasierra (Línea 9).  Bus: 49.";"";"3";"http://www.madrid.es/sites/v/index.jsp?vgnextchannel=bfa48ab43d6bb410VgnVCM100000171f5a0aRCRD&vgnextoid=3029d32c8c1a7610VgnVCM1000001d4a900aRCRD";"COLLADO DE TIROBARRA";"CALLE";"V";"10";"5";"";"";"";"MADRID";"MADRID";"28034";"7";"MIRASIERRA";"8";"FUENCARRAL-EL PARDO";"439193";"4482898";"40.49456056526417";"-3.717556234665301";"913 876 050";"";"";"/contenido/entidadesYorganismos/CentrosAtencionSocialMayores/ResidenciasApartamentosMayores"
165354;"Residencia para mayores Padre Eladio";"";"";"Residencia de personas mayores dependientes.";"Bus: 64, 42.";"";"3";"http://www.madrid.es/sites/v/index.jsp?vgnextchannel=bfa48ab43d6bb410VgnVCM100000171f5a0aRCRD&vgnextoid=98248f90a581c010VgnVCM1000000b205a0aRCRD";"ISLAS BIKINI";"CALLE";"V";"4";"";"";"";"";"MADRID";"MADRID";"28035";"3";"PEÑA GRANDE";"8";"FUENCARRAL-EL PARDO";"438320";"4480675";"40.47446969343468";"-3.7276473699776953";"913 733 767";"";"";"/contenido/entidadesYorganismos/CentrosAtencionSocialMayores/ResidenciasApartamentosMayores"
5934113;"Residencia para mayores Paseo Imperial";"";"";"Residencia de personas mayores dependientes.";"Metro: Puerta de Toledo (línea 5), Pirámides (línea 5).  Bus: 17, 41, 36, 62.  Cercanías Renfe: Pirámides (líneas C1 y C10).  Bicimad: Estación 236 (paseo Imperial, 20).  Aparcamiento: Parking VOT (97), Ventosa.";"";"3";"http://www.madrid.es/sites/v/index.jsp?vgnextchannel=bfa48ab43d6bb410VgnVCM100000171f5a0aRCRD&vgnextoid=f765b014bd7cd210VgnVCM2000000c205a0aRCRD";"IMPERIAL";"PASEO";"V";"26";"";"";"";"";"MADRID";"MADRID";"28005";"1";"IMPERIAL";"2";"ARGANZUELA";"439201";"4472999";"40.40538911987368";"-3.7165169445699884";"913 648 252";"";"";"/contenido/entidadesYorganismos/CentrosAtencionSocialMayores/ResidenciasApartamentosMayores"
11331;"Residencia para mayores Paseo de la Habana";"";"";"Residencia de personas mayores dependientes.";"Metro: Pío XII (línea 9).  Bus: 14, 150.";"";"3";"http://www.madrid.es/sites/v/index.jsp?vgnextchannel=bfa48ab43d6bb410VgnVCM100000171f5a0aRCRD&vgnextoid=0ed372081661c010VgnVCM1000000b205a0aRCRD";"LA HABANA";"PASEO";"V";"143";"";"";"";"";"MADRID";"MADRID";"28036";"5";"NUEVA ESPAÑA";"5";"CHAMARTIN";"442297";"4479224";"40.46168400949866";"-3.6805909465380116";"913 455 374";"";"";"/contenido/entidadesYorganismos/CentrosAtencionSocialMayores/ResidenciasApartamentosMayores"
5934851;"Residencia para mayores Pedro Justo Dorado";"";"";"Residencia de personas mayores dependientes.";"Metro: Guman El Bueno (líneas 6 y 7).  Bus: 45, C2, F, C1, 44, 127.  Bicimad: Estaciones 256 (calle Beatriz de Bobadilla,2), 237 (calle Francisco Balseiro, 1).";"";"3";"http://www.madrid.es/sites/v/index.jsp?vgnextchannel=bfa48ab43d6bb410VgnVCM100000171f5a0aRCRD&vgnextoid=c144157e4accd210VgnVCM1000000b205a0aRCRD";"PEDRO JUSTO DORADO DELLMANS";"CALLE";"V";"5";"";"";"";"";"MADRID";"MADRID";"28040";"3";"CIUDAD UNIVERSITARIA";"9";"MONCLOA-ARAVACA";"439604";"4477784";"40.448521345822854";"-3.7122167864240856";"915 358 620";"";"";"/contenido/entidadesYorganismos/CentrosAtencionSocialMayores/ResidenciasApartamentosMayores"
7622795;"Residencia para mayores Puerta de Hierro (Fundación Sagrada Familia)";"";"";"Residencia de personas mayores dependientes.";"Bus: 137, 82, 64.";"";"3";"http://www.madrid.es/sites/v/index.jsp?vgnextchannel=bfa48ab43d6bb410VgnVCM100000171f5a0aRCRD&vgnextoid=e3548e8b14538410VgnVCM1000000b205a0aRCRD";"ISIDRO DOMPABLO";"CALLE";"V";"10";"";"";"";"";"MADRID";"MADRID";"28035";"3";"CIUDAD UNIVERSITARIA";"9";"MONCLOA-ARAVACA";"438641";"4479513";"40.46403166996745";"-3.7237444501482004";"913 166 566";"";"";"/contenido/entidadesYorganismos/CentrosAtencionSocialMayores/ResidenciasApartamentosMayores"
5872926;"Residencia para mayores Rafael Alberti";"";"";"Residencia de personas mayores dependientes.";"Metro: Francos Rodríguez (línea 7).  Bus: 132.";"";"3";"http://www.madrid.es/sites/v/index.jsp?vgnextchannel=bfa48ab43d6bb410VgnVCM100000171f5a0aRCRD&vgnextoid=17ec146bce27c210VgnVCM2000000c205a0aRCRD";"PIRINEOS";"CALLE";"V";"55";"";"";"";"";"MADRID";"MADRID";"28040";"3";"CIUDAD UNIVERSITARIA";"9";"MONCLOA-ARAVACA";"439057";"4478349";"40.45356155484048";"-3.7187418499984233";"911 440 634";"";"";"/contenido/entidadesYorganismos/CentrosAtencionSocialMayores/ResidenciasApartamentosMayores"
10843462;"Residencia para mayores Reina Victoria";"";"";"Residencia de personas mayores dependientes.";"Metro: Guzmán el Bueno (líneas 6 y 7).  Bus: 45, C2, F, C1, 44.";"";"3";"http://www.madrid.es/sites/v/index.jsp?vgnextchannel=bfa48ab43d6bb410VgnVCM100000171f5a0aRCRD&vgnextoid=eedbd32c8c1a7610VgnVCM1000001d4a900aRCRD";"JUAN MONTALVO";"CALLE";"V";"20";"";"";"";"";"MADRID";"MADRID";"28040";"3";"CIUDAD UNIVERSITARIA";"9";"MONCLOA-ARAVACA";"439701";"4477671";"40.447516597243876";"-3.711071404203884";"915 346 000";"";"";"/contenido/entidadesYorganismos/CentrosAtencionSocialMayores/ResidenciasApartamentosMayores"
10290301;"Residencia para mayores Rosita";"";"";"Residencia de personas mayores mixta.";"Bus: 64.";"";"3";"http://www.madrid.es/sites/v/index.jsp?vgnextchannel=bfa48ab43d6bb410VgnVCM100000171f5a0aRCRD&vgnextoid=2ed6170b55cca510VgnVCM1000001d4a900aRCRD";"ISLA DE SAIPAN";"CALLE";"V";"43";"";"";"";"";"MADRID";"MADRID";"28035";"3";"PEÑA GRANDE";"8";"FUENCARRAL-EL PARDO";"438106";"4480940";"40.476840497143826";"-3.730191844529223";"917 793 659";"";"";"/contenido/entidadesYorganismos/CentrosAtencionSocialMayores/ResidenciasApartamentosMayores"
165309;"Residencia para mayores Sagrada Familia (Luis Larrainza)";"";"";"Residencia de personas mayores dependientes.";"Metro: Alfonso XIII (línea 4).  Bus: 40, 43, 72, 73, 9, 120.";"";"3";"http://www.madrid.es/sites/v/index.jsp?vgnextchannel=bfa48ab43d6bb410VgnVCM100000171f5a0aRCRD&vgnextoid=d7f08f90a581c010VgnVCM1000000b205a0aRCRD";"LUIS LARRAINZA";"CALLE";"V";"46";"";"";"";"";"MADRID";"MADRID";"28002";"3";"CIUDAD JARDIN";"5";"CHAMARTIN";"443288";"4478009";"40.45080845854184";"-3.6687967912589636";"914 134 115";"";"";"/contenido/entidadesYorganismos/CentrosAtencionSocialMayores/ResidenciasApartamentosMayores"
17498;"Residencia para mayores Sagrada Familia Ulises";"";"";"";"Metro: Arturo Soria (línea 4), Esperanza (línea 4).  Bus: 120, 122.";"";"3";"http://www.madrid.es/sites/v/index.jsp?vgnextchannel=bfa48ab43d6bb410VgnVCM100000171f5a0aRCRD&vgnextoid=41d832df1d51c010VgnVCM2000000c205a0aRCRD";"ULISES";"CALLE";"V";"60";"";"";"";"";"MADRID";"MADRID";"28043";"3";"CANILLAS";"16";"HORTALEZA";"444817";"4478838";"40.45838051648857";"-3.650836701036443";"913 885 183 / 913 884 119";"";"";"/contenido/entidadesYorganismos/CentrosAtencionSocialMayores/ResidenciasApartamentosMayores"
10290331;"Residencia para mayores Sagrada Familia calle Villaviciosa";"";"";"Residencia de personas mayores mixta.";"Metro: Colonia Jardín (líneas 10, ML2 y ML3), Campamento (línea 5).  Bus: 65, 36, 39.";"";"3";"http://www.madrid.es/sites/v/index.jsp?vgnextchannel=bfa48ab43d6bb410VgnVCM100000171f5a0aRCRD&vgnextoid=42f7170b55cca510VgnVCM1000001d4a900aRCRD";"VILLAVICIOSA";"CALLE";"V";"24";"";"";"";"";"MADRID";"MADRID";"28024";"5";"CAMPAMENTO";"10";"LATINA";"434683";"4472177";"40.39764593351889";"-3.7696727149386917";"915 182 640";"";"";"/contenido/entidadesYorganismos/CentrosAtencionSocialMayores/ResidenciasApartamentosMayores"
5937277;"Residencia para mayores Sagrado Corazón";"";"";"Residencia de personas mayores dependientes.";"Metro: Artilleros (línea 9).  Bus: 30, 100, 140.";"";"3";"http://www.madrid.es/sites/v/index.jsp?vgnextchannel=bfa48ab43d6bb410VgnVCM100000171f5a0aRCRD&vgnextoid=c73446d9341ed210VgnVCM2000000c205a0aRCRD";"MERIDA";"CALLE";"V";"27";"";"";"";"";"MADRID";"MADRID";"28030";"3";"MARROQUINA";"14";"MORATALAZ";"446276";"4473160";"40.40731403124254";"-3.6331714083443205";"913 016 609";"";"";"/contenido/entidadesYorganismos/CentrosAtencionSocialMayores/ResidenciasApartamentosMayores"
11311;"Residencia para mayores San Enrique y Santa Rita";"";"";"Residencia de personas mayores mixta.";"Bus: 162.";"";"3";"http://www.madrid.es/sites/v/index.jsp?vgnextchannel=bfa48ab43d6bb410VgnVCM100000171f5a0aRCRD&vgnextoid=b4e75a0f8161c010VgnVCM1000000b205a0aRCRD";"ARENAS Y NAVARRO";"CALLE";"V";"16";"";"";"";"";"MADRID";"MADRID";"28023";"5";"VALDEMARIN";"9";"MONCLOA-ARAVACA";"432417";"4480089";"40.468722440758754";"-3.7972290035866165";"913 079 340";"";"";"/contenido/entidadesYorganismos/CentrosAtencionSocialMayores/ResidenciasApartamentosMayores"
11380;"Residencia para mayores San Francisco de Paula";"";"";"Residencia de personas mayores mixta.";"Metro: Pavones (línea 9).  Bus: 32, 20, 30, 71, 100, 140, 8.  Bicimad: Estación 221 (calle Hacienda de Pavones, 342).";"";"3";"http://www.madrid.es/sites/v/index.jsp?vgnextchannel=bfa48ab43d6bb410VgnVCM100000171f5a0aRCRD&vgnextoid=4e3772081661c010VgnVCM1000000b205a0aRCRD";"VALDEBERNARDO";"CALLE";"V";"29";"2º";"";"";"";"MADRID";"MADRID";"28030";"1";"PAVONES";"14";"MORATALAZ";"446385";"4472548";"40.40182057166897";"-3.631822715268496";"913 710 867 / 913 710 158";"";"";"/contenido/entidadesYorganismos/CentrosAtencionSocialMayores/ResidenciasApartamentosMayores"
131609;"Residencia para mayores San José";"";"";"Residencia de personas mayores autónomos.";"Bus: 116, 78.  Cercanías Renfe: Orcasitas (línea C5).";"";"3";"http://www.madrid.es/sites/v/index.jsp?vgnextchannel=bfa48ab43d6bb410VgnVCM100000171f5a0aRCRD&vgnextoid=c4f06da0aa81c010VgnVCM1000000b205a0aRCRD";"TREVELEZ";"CALLE";"V";"3";"";"";"";"";"MADRID";"MADRID";"28041";"2";"ORCASUR";"12";"USERA";"440328";"4468532";"40.365234134233475";"-3.702811542081216";"913 175 467 / 913 175 468";"";"";"/contenido/entidadesYorganismos/CentrosAtencionSocialMayores/ResidenciasApartamentosMayores"
11848;"Residencia para mayores San Juan de Dios";"";"";"Residencia de personas mayores dependientes.";"Metro: Concha Espina (línea 9), Colombia (líneas 8 y 9).  Bus: 51, 7, 120, 43, 14.  Bicimad: Estación 159: Paseo de la Habana, 63.";"";"3";"http://www.madrid.es/sites/v/index.jsp?vgnextchannel=bfa48ab43d6bb410VgnVCM100000171f5a0aRCRD&vgnextoid=9a8fd4985261c010VgnVCM1000000b205a0aRCRD";"HERREROS DE TEJADA";"CALLE";"V";"3";"";"";"";"";"MADRID";"MADRID";"28016";"4";"HISPANOAMERICA";"5";"CHAMARTIN";"442204";"4478310";"40.453447325298434";"-3.6816065049846416";"913 440 020";"";"";"/contenido/entidadesYorganismos/CentrosAtencionSocial/AlberguesSocialesCentrosAcogida"
5937228;"Residencia para mayores San Luis Gonzaga (Los Almendros)";"";"";"Residencia de personas mayores dependientes.";"";"";"3";"http://www.madrid.es/sites/v/index.jsp?vgnextchannel=bfa48ab43d6bb410VgnVCM100000171f5a0aRCRD&vgnextoid=6745b7a3621ed210VgnVCM2000000c205a0aRCRD";"COLMENAR VIEJO";"CARRETERA";"V";"";"";"";"";"km 14,400";"MADRID";"MADRID";"28049";"";"";"";"FUENCARRAL-EL PARDO";"439661";"4490699";"";"";"917 347 477";"";"";"/contenido/entidadesYorganismos/CentrosAtencionSocialMayores/ResidenciasApartamentosMayores"
5935000;"Residencia para mayores Sanitas El Viso";"";"";"Residencia de personas mayores dependientes.";"Metro: Concha Espina (línea 9).  Bus: 51, 7, 16, 29, 52, 19.  Bicimad: Estaciones 147 (avenida del Doctor Arce, 45), 197 (avenida de Concha Espina, 34).";"";"3";"http://www.madrid.es/sites/v/index.jsp?vgnextchannel=bfa48ab43d6bb410VgnVCM100000171f5a0aRCRD&vgnextoid=4443d788acccd210VgnVCM2000000c205a0aRCRD";"RODRIGUEZ MARIN";"CALLE";"V";"57";"";"";"";"";"MADRID";"MADRID";"28002";"1";"EL VISO";"5";"CHAMARTIN";"442433";"4477936";"40.45009082916007";"-3.6788806458897585";"915 612 332";"";"";"/contenido/entidadesYorganismos/CentrosAtencionSocialMayores/ResidenciasApartamentosMayores"
10843310;"Residencia para mayores Sanitas Residencial Alameda";"";"";"Residencia de personas mayores dependientes.";"Metro: Alameda de Osuna (línea 5).  Bus: 105, 112, 115, 151, 166.";"";"3";"http://www.madrid.es/sites/v/index.jsp?vgnextchannel=bfa48ab43d6bb410VgnVCM100000171f5a0aRCRD&vgnextoid=137c760a581a7610VgnVCM1000001d4a900aRCRD";"ALAMEDA DE OSUNA";"PASEO";"V";"80";"";"";"";"";"MADRID";"MADRID";"28042";"1";"ALAMEDA DE OSUNA";"21";"BARAJAS";"450267";"4478962";"40.459845129249935";"-3.5865713002907276";"917 474 504";"";"";"/contenido/entidadesYorganismos/CentrosAtencionSocialMayores/ResidenciasApartamentosMayores"
36067;"Residencia para mayores Sanitas Residencial La Florida";"";"";"Residencia de personas mayores dependientes.";"Bus: 162.";"";"3";"http://www.madrid.es/sites/v/index.jsp?vgnextchannel=bfa48ab43d6bb410VgnVCM100000171f5a0aRCRD&vgnextoid=8abc444a2951c010VgnVCM2000000c205a0aRCRD";"VALLE DE TORANZO";"CALLE";"V";"3";"";"";"";"";"MADRID";"MADRID";"28023";"5";"VALDEMARIN";"9";"MONCLOA-ARAVACA";"432582";"4479999";"40.46794107051842";"-3.795261656870365";"917 400 386";"";"";"/contenido/entidadesYorganismos/CentrosAtencionSocialMayores/ResidenciasApartamentosMayores"
144463;"Residencia para mayores Sanitas Residencial Puerta de Hierro";"";"";"Residencia de personas mayores mixta.";"Bus: 137, 82.";"";"3";"http://www.madrid.es/sites/v/index.jsp?vgnextchannel=bfa48ab43d6bb410VgnVCM100000171f5a0aRCRD&vgnextoid=8b75ba61e681c010VgnVCM1000000b205a0aRCRD";"ALFONSO FERNANDEZ CLAUSELLS";"CALLE";"NUM";"2";"";"";"";"";"MADRID";"MADRID";"28035";"3";"CIUDAD UNIVERSITARIA";"9";"MONCLOA-ARAVACA";"438589";"4479228";"40.46144546159167";"-3.7243458194947334";"913 980 017";"";"";"/contenido/entidadesYorganismos/CentrosAtencionSocialMayores/ResidenciasApartamentosMayores"
144383;"Residencia para mayores Sanitas residencial Arturo Soria";"";"";"Residencia de personas mayores autónomas.";"Metro: Arturo Soria (línea 4).  Bus: 11, 122, 70.";"";"3";"http://www.madrid.es/sites/v/index.jsp?vgnextchannel=bfa48ab43d6bb410VgnVCM100000171f5a0aRCRD&vgnextoid=844147048781c010VgnVCM1000000b205a0aRCRD";"ARTURO SORIA";"CALLE";"NUM";"146";"";"";"";"";"MADRID";"MADRID";"28043";"6";"SAN JUAN BAUTISTA";"15";"CIUDAD LINEAL";"444605";"4478204";"40.452643684788875";"-3.653291416854228";"915 192 029";"";"";"/contenido/entidadesYorganismos/CentrosAtencionSocialMayores/ResidenciasApartamentosMayores"
11368;"Residencia para mayores Santa Eugenia";"";"";"";"Bus: 58, 63, 145.  Cercanías Renfe: Santa Eugenia (líneas C2, C7 y Regional).";"";"3";"http://www.madrid.es/sites/v/index.jsp?vgnextchannel=bfa48ab43d6bb410VgnVCM100000171f5a0aRCRD&vgnextoid=d50072081661c010VgnVCM1000000b205a0aRCRD";"ZAZUAR";"CALLE";"V";"13";"";"";"";"";"MADRID";"MADRID";"28031";"2";"SANTA EUGENIA";"18";"VILLA DE VALLECAS";"448467";"4470306";"40.381751235958745";"-3.6071056006123245";"913 313 101";"";"";"/contenido/entidadesYorganismos/CentrosAtencionSocialMayores/ResidenciasApartamentosMayores"
11483;"Residencia para mayores Santa Filipina";"";"";"Residencia de personas mayores dependientes.";"Metro: Duque de Pastrana (línea 9).  Bus: 129, 14, 174.";"";"3";"http://www.madrid.es/sites/v/index.jsp?vgnextchannel=bfa48ab43d6bb410VgnVCM100000171f5a0aRCRD&vgnextoid=8ae772081661c010VgnVCM1000000b205a0aRCRD";"BURGOS";"AVENIDA";"NUM";"4";"";"";"";"";"MADRID";"MADRID";"28036";"6";"CASTILLA";"5";"CHAMARTIN";"442684";"4480120";"40.46977356548162";"-3.676129755224431";"917 672 276";"";"";"/contenido/entidadesYorganismos/CentrosAtencionSocialMayores/ResidenciasApartamentosMayores"
11285;"Residencia para mayores Santa Genoveva Torres";"";"";"Residencia de personas mayores dependientes.";"Metro: Ventura Rodriguez (línea 3), Arg&amp;uuml;elles (línea 3, 4 y 6).  Bus: 001, 1, 133, 138, 44, C1, 2, C2, 002, C03.    Bicimad: Estaciones 114 (calle Quintana, 11), 57 (calle Santa Cruz del Marcenado, 24), 123 (calle Guzmán el Bueno, 1), 14 (calle Duque de Liria).";"";"3";"http://www.madrid.es/sites/v/index.jsp?vgnextchannel=bfa48ab43d6bb410VgnVCM100000171f5a0aRCRD&vgnextoid=4bd8d4985261c010VgnVCM1000000b205a0aRCRD";"PRINCESA";"CALLE";"NUM";"33";"";"";"";"";"MADRID";"MADRID";"28008";"";"ARGÜELLES";"";"MONCLOA-ARAVACA";"439361";"4475551";"40.42838726340452";"-3.714889928059992";"915 479 600";"";"";"/contenido/entidadesYorganismos/CentrosAtencionSocialMayores/ResidenciasApartamentosMayores"
11343;"Residencia para mayores Santa María del Monte Carmelo";"";"";"Residencia de personas mayores mixta.";"Metro: Núñez de Balboa (líneas 5 y 9), Velázquez (línea 4).  Bus: 1, 19, 51, 74, 9.  Bicimad: Estación 87 (calle Ayala, 44).  Aparcamiento: Velázquez Ayala (42), calle Velázquez y calle Ayala.";"";"3";"http://www.madrid.es/sites/v/index.jsp?vgnextchannel=bfa48ab43d6bb410VgnVCM100000171f5a0aRCRD&vgnextoid=422814c4d661c010VgnVCM1000000b205a0aRCRD";"AYALA";"CALLE";"NUM";"35";"";"";"";"";"MADRID";"MADRID";"28001";"1";"RECOLETOS";"4";"SALAMANCA";"442037";"4475462";"40.42777634196356";"-3.683324619190937";"914 351 660";"";"";"/contenido/entidadesYorganismos/CentrosAtencionSocialMayores/ResidenciasApartamentosMayores"
6724491;"Residencia para mayores Santa Matilde";"";"";"Residencia de personas mayores dependientes.";"Metro: Alvarado (línea 1), Cuatro Caminos (líneas 1, 2 y 6).  Bus: 127, 44.";"";"3";"http://www.madrid.es/sites/v/index.jsp?vgnextchannel=bfa48ab43d6bb410VgnVCM100000171f5a0aRCRD&vgnextoid=92ed2977d1eab310VgnVCM1000000b205a0aRCRD";"SANTA MATILDE";"CALLE";"V";"7";"";"";"";"";"MADRID";"MADRID";"28039";"1";"BELLAS VISTAS";"6";"TETUAN";"439952";"4477943";"40.44997916360529";"-3.7081282969099325";"914 508 282";"";"";"/contenido/entidadesYorganismos/CentrosAtencionSocialMayores/ResidenciasApartamentosMayores"
11288;"Residencia para mayores Santa Teresa Jornet";"";"";"Residencia de personas mayores mixta.";"Metro: Carabanchel Alto (Línea 11).  Bus: 35, 47, 108, 118.";"";"3";"http://www.madrid.es/sites/v/index.jsp?vgnextchannel=bfa48ab43d6bb410VgnVCM100000171f5a0aRCRD&vgnextoid=22d75a0f8161c010VgnVCM1000000b205a0aRCRD";"DUQUESA DE TAMAMES";"CALLE";"V";"8";"";"";"";"";"MADRID";"MADRID";"28044";"6";"BUENAVISTA";"11";"CARABANCHEL";"436343";"4469354";"40.37233963495772";"-3.749830315518033";"915 085  849 / 915 089 108";"";"";"/contenido/entidadesYorganismos/CentrosAtencionSocialMayores/ResidenciasApartamentosMayores"
11301;"Residencia para mayores Santa Teresa y San José";"";"";"Residencia de personas mayores mixta.";"Metro: Plaza de España (línea 3 y 10).  Bus: 138, 25, 39, 46, 62, 75, C2, C1.  Bicimad: Estaciones 116 a y b (Plaza de España), 115 (calle Everisto San Miguel, 2), 14 (calle Duque de Liria).  Aparcamientos: Plaza de España (53); plaza de Oriente (32).";"";"3";"http://www.madrid.es/sites/v/index.jsp?vgnextchannel=bfa48ab43d6bb410VgnVCM100000171f5a0aRCRD&vgnextoid=6269d4985261c010VgnVCM1000000b205a0aRCRD";"ESPA&amp;Ntilde;A";"PLAZA";"V";"14";"";"";"";"";"MADRID";"MADRID";"28008";"2";"ARGUELLES";"9";"MONCLOA-ARAVACA";"439370";"4474906";"40.4225775509256";"-3.714710539571387";"915 412 996";"";"";"/contenido/entidadesYorganismos/CentrosAtencionSocialMayores/ResidenciasApartamentosMayores"
165380;"Residencia para mayores Santísima Trinidad";"";"";"Residencia de personas mayores mixta.";"Bus: 160.";"";"3";"http://www.madrid.es/sites/v/index.jsp?vgnextchannel=bfa48ab43d6bb410VgnVCM100000171f5a0aRCRD&vgnextoid=75568f90a581c010VgnVCM1000000b205a0aRCRD";"OSA MAYOR";"AVENIDA";"NUM";"8";"";"";"";"";"MADRID";"MADRID";"28023";"7";"ARAVACA";"9";"MONCLOA-ARAVACA";"434421";"4479437";"40.461136364047206";"-3.774788399867311";"913 572 268";"";"";"/contenido/entidadesYorganismos/CentrosAtencionSocialMayores/ResidenciasApartamentosMayores"
11327;"Residencia para mayores Santísima Virgen y San Celedonio";"";"";"Residencia de personas mayores mixta.";"Metro: Colombía (líneas 8 y 9).  Bus: 14.  Bicimad: Estación 159 (paseo de la Habaina, 63).";"";"3";"http://www.madrid.es/sites/v/index.jsp?vgnextchannel=bfa48ab43d6bb410VgnVCM100000171f5a0aRCRD&vgnextoid=0da75a0f8161c010VgnVCM1000000b205a0aRCRD";"CONDES DEL VAL";"CALLE";"V";"11";"";"";"";"";"MADRID";"MADRID";"28036";"4";"HISPANOAMERICA";"5";"CHAMARTIN";"442038";"4478574";"40.45581361113412";"-3.683592431886361";"914 571 960";"";"";"/contenido/entidadesYorganismos/CentrosAtencionSocialMayores/ResidenciasApartamentosMayores"
11291;"Residencia para mayores Valdeluz San Blas";"";"";"Residencia de personas mayores dependientes.";"";"";"3";"http://www.madrid.es/sites/v/index.jsp?vgnextchannel=bfa48ab43d6bb410VgnVCM100000171f5a0aRCRD&vgnextoid=eb68d4985261c010VgnVCM1000000b205a0aRCRD";"CIGOITIA";"CALLE";"V";"13";"";"";"";"";"MADRID";"MADRID";"28022";"6";"REJAS";"20";"SAN BLAS-CANILLEJAS";"450848";"4477483";"40.44746483799049";"-3.5796453874731777";"916 434 340";"";"";"/contenido/entidadesYorganismos/CentrosAtencionSocialMayores/ResidenciasApartamentosMayores"
165238;"Residencia para mayores Valmonte";"";"";"Residencia de personas mayores mixta.";"Metro: Colombía (líneas 8 y 9), Cuzco (línea 10).  Bus: 14.  Bicimad: Estaciones 158 (avenida de Alberto Alcocer, 22), 159 (paseo de la Habana, 63).";"";"3";"http://www.madrid.es/sites/v/index.jsp?vgnextchannel=bfa48ab43d6bb410VgnVCM100000171f5a0aRCRD&vgnextoid=5628ac2e6481c010VgnVCM1000000b205a0aRCRD";"ROMERO GIRON";"CALLE";"NUM";"9";"";"";"";"";"MADRID";"MADRID";"28036";"4";"HISPANOAMERICA";"5";"CHAMARTIN";"442098";"4478657";"40.45655364837571";"-3.682896655547042";"914 584 800";"";"";"/contenido/entidadesYorganismos/CentrosAtencionSocialMayores/ResidenciasApartamentosMayores"
187332;"Residencia para mayores Virgen Llana";"";"";"Residencia de personas mayores dependientes.";"Metro: Torre Arias (línea 5).  Bus: 140, 153, 28, 105, 77.";"";"3";"http://www.madrid.es/sites/v/index.jsp?vgnextchannel=bfa48ab43d6bb410VgnVCM100000171f5a0aRCRD&vgnextoid=eedcd2bec675e010VgnVCM1000000b205a0aRCRD";"SANTA TECLA";"CALLE";"V";"24";"";"";"";"";"MADRID";"MADRID";"28022";"7";"CANILLEJAS";"20";"SAN BLAS-CANILLEJAS";"447879";"4477087";"40.44280968004189";"-3.614580463979454";"616 490 002";"";"";"/contenido/entidadesYorganismos/CentrosAtencionSocialMayores/ResidenciasApartamentosMayores"
36216;"Residencia para mayores Virgen de La Paloma";"";"";"Residencia de personas mayores dependientes.";"Bus: 155.  Cercanías Renfe: Maestra Justa Freire - Polideportivo Aluche (antigua estación de Fanjul) (línea C5).";"";"3";"http://www.madrid.es/sites/v/index.jsp?vgnextchannel=bfa48ab43d6bb410VgnVCM100000171f5a0aRCRD&vgnextoid=4e8e444a2951c010VgnVCM2000000c205a0aRCRD";"ARBOL DEL CIELO";"CALLE";"NUM";"38";"";"";"";"";"MADRID";"MADRID";"28044";"7";"LAS AGUILAS";"10";"LATINA";"435153";"4470196";"40.37981235646289";"-3.763901429796378";"917 063 133";"";"";"/contenido/entidadesYorganismos/CentrosAtencionSocialMayores/ResidenciasApartamentosMayores"
11087060;"Residencia para mayores Virgen de Valvanera";"";"";"Residencia de personas mayores mixta.";"Metro: Pío XII (linea 9).  Bus: 107, 29, 70, 150, 16, 52.";"";"3";"http://www.madrid.es/sites/v/index.jsp?vgnextchannel=bfa48ab43d6bb410VgnVCM100000171f5a0aRCRD&vgnextoid=dd73b3b18fe0f610VgnVCM2000001f4a900aRCRD";"MADRE DE DIOS";"CALLE";"V";"40";"";"";"";"";"MADRID";"MADRID";"28016";"5";"NUEVA ESPAÑA";"5";"CHAMARTIN";"442972";"4479572";"40.46486949738614";"-3.672664641035862";"910 238 923";"";"";"/contenido/entidadesYorganismos/CentrosAtencionSocialMayores/ResidenciasApartamentosMayores"
11298440;"Residencia para mayores Vitalia Canillejas";"";"";"Residencia de personas mayores dependientes.";"Metro: Ciudad Lineal (Línea 5).  Bus: 105, 38, 4, 48, 70.";"";"3";"http://www.madrid.es/sites/v/index.jsp?vgnextchannel=bfa48ab43d6bb410VgnVCM100000171f5a0aRCRD&vgnextoid=9e332bd0cabd6710VgnVCM2000001f4a900aRCRD";"ALBARRACIN";"CALLE";"V";"24";"";"";"";"";"MADRID";"MADRID";"28037";"1";"SIMANCAS";"20";"SAN BLAS-CANILLEJAS";"446288";"4476270";"40.43534405610233";"-3.633279351943397";"911 094 353";"";"";"/contenido/entidadesYorganismos/CentrosAtencionSocialMayores/ResidenciasApartamentosMayores"
11298430;"Residencia para mayores Vitalia Moratalaz";"";"";"Residencia de personas mayores dependientes.";"Metro: Pavones (Línea 9).  Bus: 30, 71, 8, 32.";"";"3";"http://www.madrid.es/sites/v/index.jsp?vgnextchannel=bfa48ab43d6bb410VgnVCM100000171f5a0aRCRD&vgnextoid=bdc22bd0cabd6710VgnVCM2000001f4a900aRCRD";"TEMPLO";"CALLE";"V";"6";"";"";"";"";"MADRID";"MADRID";"28030";"1";"PAVONES";"14";"MORATALAZ";"446507";"4472430";"40.40076171868551";"-3.6303729049958005";"976 229 522";"";"";"/contenido/entidadesYorganismos/CentrosAtencionSocialMayores/ResidenciasApartamentosMayores"
165310;"Residencia para mayores Vuestra Casa II";"";"";"Residencia de personas mayores dependientes.";"Metro: Diego de León (línea 4, 5 y 6), Ventas (línea 2 y 5).  Bus: 43, 48, 1.  Bicimad: Estaciones 243 (calle Cartagena, 34), 193 (avenida de los Toreros, 49).  Aparcamiento: San Cayetano (36), plaza de San Cayetano.";"";"3";"http://www.madrid.es/sites/v/index.jsp?vgnextchannel=bfa48ab43d6bb410VgnVCM100000171f5a0aRCRD&vgnextoid=f4987ccc3681c010VgnVCM1000000b205a0aRCRD";"MARTINEZ IZQUIERDO";"CALLE";"V";"37";"";"";"";"";"MADRID";"MADRID";"28028";"4";"GUINDALERA";"4";"SALAMANCA";"443336";"4476176";"40.43430528574248";"-3.6680665016655145";"917 253 067 / 917 257 904";"";"";"/contenido/entidadesYorganismos/CentrosAtencionSocialMayores/ResidenciasApartamentosMayores"
11928;"Residencia para mayores avenida San Luis";"";"";"Residencia para personas mayores dependientes.";"Metro: Hortaleza (línea 4).  Bus: 107, 125, 172.";"";"3";"http://www.madrid.es/sites/v/index.jsp?vgnextchannel=bfa48ab43d6bb410VgnVCM100000171f5a0aRCRD&vgnextoid=309466051361c010VgnVCM1000000b205a0aRCRD";"TOTANA";"CALLE";"V";"10";"";"";"";"";"MADRID";"MADRID";"28033";"4";"PINAR DEL REY";"16";"HORTALEZA";"444577";"4480424";"40.47265325913342";"-3.6538073563813707";"913 822 092";"";"";"/contenido/entidadesYorganismos/CentrosAtencionSocialMayores/ResidenciasApartamentosMayores"
6724851;"Residencia para mayores dependientes y centro de día Adolfo Suárez";"";"";"Residencia de personas mayores dependientes y centro de día.";"Metro: Alsacia (línea 2).  Bus: 106, 140, 159.";"";"3";"http://www.madrid.es/sites/v/index.jsp?vgnextchannel=bfa48ab43d6bb410VgnVCM100000171f5a0aRCRD&vgnextoid=2e3c95f1a4eab310VgnVCM1000000b205a0aRCRD";"RAVENA";"CALLE";"V";"18";"";"";"";"";"MADRID";"MADRID";"28032";"4";"ARCOS";"20";"SAN BLAS-CANILLEJAS";"447914";"4474437";"40.418931233238816";"-3.6139608123665043";"913 220 900";"";"";"/contenido/entidadesYorganismos/CentrosAtencionSocialMayores/ResidenciasApartamentosMayores"
5934104;"Residencia para mayores la Florida";"";"";"Residencia de personas mayores dependientes.";"Bus: 162.";"";"3";"http://www.madrid.es/sites/v/index.jsp?vgnextchannel=bfa48ab43d6bb410VgnVCM100000171f5a0aRCRD&vgnextoid=54fbb014bd7cd210VgnVCM2000000c205a0aRCRD";"ZARAUZ";"CALLE";"V";"6";"";"";"";"";"MADRID";"MADRID";"28023";"6";"EL PLANTIO";"9";"MONCLOA-ARAVACA";"431020";"4480317";"40.47067325213396";"-3.813712334365718";"913 729 498";"";"";"/contenido/entidadesYorganismos/CentrosAtencionSocialMayores/ResidenciasApartamentosMayores"
11357;"Residencia para mayores y Centro de Día  Montserrat Caballé";"";"";"Residencia de personas mayores dependientes y centro de día.";"Bus: 151.";"";"3";"http://www.madrid.es/sites/v/index.jsp?vgnextchannel=bfa48ab43d6bb410VgnVCM100000171f5a0aRCRD&vgnextoid=70b672081661c010VgnVCM1000000b205a0aRCRD";"BAHÍA DE SANTA POLA";"CALLE";"V";"2";"";"";"";"";"MADRID";"MADRID";"28042";"5";"CORRALEJOS";"21";"BARAJAS";"449935";"4479673";"40.466224479186955";"-3.5905522628970408";"917 481 552 / 913 643 936";"";"";"/contenido/entidadesYorganismos/CentrosAtencionSocialMayores/ResidenciasApartamentosMayores"
131569;"Residencia para mayores y Centro de día Orpea Carabanchel";"";"";"Residencia para personas mayores dependientes y centro de día.";"Metro: Eugenia de Montijo (línea 5).  Bus: 17.";"";"3";"http://www.madrid.es/sites/v/index.jsp?vgnextchannel=bfa48ab43d6bb410VgnVCM100000171f5a0aRCRD&vgnextoid=a30115a11a81c010VgnVCM1000000b205a0aRCRD";"NUESTRA SEÑORA DE LA LUZ";"CALLE";"V";"74";"";"";"";"";"MADRID";"MADRID";"28047";"4";"VISTA ALEGRE";"11";"CARABANCHEL";"436449";"4470774";"40.38513686161112";"-3.7487282030867517";"914 220 880";"";"";"/contenido/entidadesYorganismos/CentrosAtencionSocialMayores/ResidenciasApartamentosMayores"
8150853;"Residencia para mayores y Centro de día Orpea San Blas";"";"";"Residencia de personas mayores dependientes y centro de día.";"Metro: Las Rosas (línea 2).  Bus: 140, 153, E2.";"";"3";"http://www.madrid.es/sites/v/index.jsp?vgnextchannel=bfa48ab43d6bb410VgnVCM100000171f5a0aRCRD&vgnextoid=be233c35c99ae410VgnVCM1000000b205a0aRCRD";"ZURICH";"CALLE";"V";"16";"";"";"";"";"MADRID";"MADRID";"28022";"5";"ROSAS";"20";"SAN BLAS-CANILLEJAS";"448774";"4474858";"40.42277725762417";"-3.603858060508128";"917 759 991";"";"";"/contenido/entidadesYorganismos/CentrosAtencionSocialMayores/ResidenciasApartamentosMayores"
5934970;"Residencia para mayores y Centro de día Orpea Sanchinarro";"";"";"Residencia de personas mayores dependientes y centro de día.";"Bus: 172, 172SF, 173.";"";"3";"http://www.madrid.es/sites/v/index.jsp?vgnextchannel=bfa48ab43d6bb410VgnVCM100000171f5a0aRCRD&vgnextoid=23fad788acccd210VgnVCM2000000c205a0aRCRD";"PADRES DOMINICOS";"CALLE";"V";"2";"";"";"";"";"MADRID";"MADRID";"28050";"6";"VALDEFUENTES";"16";"HORTALEZA";"444385";"4483689";"40.50204943593748";"-3.6563669058895547";"917 502 138";"";"";"/contenido/entidadesYorganismos/CentrosAtencionSocialMayores/ResidenciasApartamentosMayores"
165361;"Residencia para mayores y Centro de día Sagrada Familia - Nueva Zelanda";"";"";"Residencia de personas mayores dependientes y centro de día.";"Metro: Antonio Machado (línea 7).  Bus: 137, 64.";"";"3";"http://www.madrid.es/sites/v/index.jsp?vgnextchannel=bfa48ab43d6bb410VgnVCM100000171f5a0aRCRD&vgnextoid=1db48f90a581c010VgnVCM1000000b205a0aRCRD";"MANUEL NIETO";"CALLE";"V";"1";"";"";"";"";"MADRID";"MADRID";"28035";"3";"CIUDAD UNIVERSITARIA";"9";"MONCLOA-ARAVACA";"438534";"4479960";"40.46803558425851";"-3.7250535978137496";"913 862 065 / 913 160 542";"";"";"/contenido/entidadesYorganismos/CentrosAtencionSocialMayores/ResidenciasApartamentosMayores"
5935108;"Residencia para mayores y Centro de día Sanitas Residencial Mirasierra";"";"";"Residencia de personas mayores mixta y centro de día.";"Bus: 133, 134.";"";"3";"http://www.madrid.es/sites/v/index.jsp?vgnextchannel=bfa48ab43d6bb410VgnVCM100000171f5a0aRCRD&vgnextoid=1d3b11738fccd210VgnVCM2000000c205a0aRCRD";"NURIA";"CALLE";"V";"40";"";"";"";"";"MADRID";"MADRID";"28034";"7";"MIRASIERRA";"8";"FUENCARRAL-EL PARDO";"440059";"4482729";"40.493100119574386";"-3.707339662163845";"917 353 270 (residencia) / 914 323 020 (centro de día)";"";"";"/contenido/entidadesYorganismos/CentrosAtencionSocialMayores/ResidenciasApartamentosMayores"
4718239;"Residencia para mayores y centro de día Amavir Arganzuela";"";"";"Residencia de personas mayores dependientes y centro de día.";"Metro: Legazpi (líneas 3 y 6).  Bus: 62, T32, 148, 156.";"";"3";"http://www.madrid.es/sites/v/index.jsp?vgnextchannel=bfa48ab43d6bb410VgnVCM100000171f5a0aRCRD&vgnextoid=3f51865bf8e57110VgnVCM1000000b205a0aRCRD";"EMBAJADORES";"CALLE";"V";"211";"";"";"";"";"MADRID";"MADRID";"28045";"4";"LEGAZPI";"2";"ARGANZUELA";"441507";"4470824";"40.385957755221774";"-3.689146063180031";"915 062 356 (residencia) / 917 817 605 (centro de día)";"";"";"/contenido/entidadesYorganismos/CentrosAtencionSocialMayores/ResidenciasApartamentosMayores"
10190472;"Residencia para mayores y centro de día Amavir Ciudad Lineal";"";"";"Residencia de personas mayores dependientes y centro de día.";"Metro: Simancas (línea 7), García Noblejas (línea 7).  Bus: 109, 38, 4, 48, 70.";"";"3";"http://www.madrid.es/sites/v/index.jsp?vgnextchannel=bfa48ab43d6bb410VgnVCM100000171f5a0aRCRD&vgnextoid=bfaadd01ca268510VgnVCM2000001f4a900aRCRD";"GABRIEL MONTERO";"CALLE";"V";"3";"";"";"";"";"MADRID";"MADRID";"28017";"2";"PUEBLO NUEVO";"15";"CIUDAD LINEAL";"446525";"4475106";"40.42486988557119";"-3.630388901312885";"913 276 199";"";"";"/contenido/entidadesYorganismos/CentrosAtencionSocialMayores/ResidenciasApartamentosMayores"
5872897;"Residencia para mayores y centro de día Amavir Usera";"";"";"Residencia de personas mayores dependientes y centro de día.";"Metro: Hospital 12 de octubre (línea 3), San Fermín-Orcasur (línea 3).  Bus: 18, 22, 59, 76, 79, 85, 86, 123, 23, 78.";"";"3";"http://www.madrid.es/sites/v/index.jsp?vgnextchannel=bfa48ab43d6bb410VgnVCM100000171f5a0aRCRD&vgnextoid=88e25c156d27c210VgnVCM2000000c205a0aRCRD";"PERLA";"AVENIDA";"V";"3";"BAJA";"";"";"";"MADRID";"MADRID";"28041";"3";"SAN FERMIN";"12";"USERA";"441064";"4469417";"40.37325150806738";"-3.6942348656464103";"915 005 550";"";"";"/contenido/entidadesYorganismos/CentrosAtencionSocialMayores/ResidenciasApartamentosMayores"
183390;"Residencia para mayores y centro de día Amavir Valdebernardo";"";"";"Residencia de personas mayores dependientes y centro de día.";"Metro: Valdebernardo (línea 9).  Bus: 71, 8, E4.";"";"3";"http://www.madrid.es/sites/v/index.jsp?vgnextchannel=bfa48ab43d6bb410VgnVCM100000171f5a0aRCRD&vgnextoid=971c0e4e6d41c010VgnVCM2000000c205a0aRCRD";"LADERA DE LOS ALMENDROS";"CALLE";"V";"44";"";"";"";"";"MADRID";"MADRID";"28032";"2";"VALDEBERNARDO";"19";"VICALVARO";"446876";"4471953";"40.396487894604455";"-3.6259784700971394";"913 016 660";"";"";"/contenido/entidadesYorganismos/CentrosAtencionSocialMayores/ResidenciasApartamentosMayores"
4717297;"Residencia para mayores y centro de día Amavir Vallecas";"";"";"Residencia de personas mayores dependientes y centro de día.";"Bus: 113, 141, 8.  Bicimad: Estación 225 (calle Sierra Toledana, 33).";"";"3";"http://www.madrid.es/sites/v/index.jsp?vgnextchannel=bfa48ab43d6bb410VgnVCM100000171f5a0aRCRD&vgnextoid=98d73fbc3c857110VgnVCM1000000b205a0aRCRD";"BALTASAR SANTOS";"CALLE";"V";"2";"BAJA";"";"";"";"MADRID";"MADRID";"28038";"6";"NUMANCIA";"13";"PUENTE DE VALLECAS";"444058";"4472627";"40.40237537638254";"-3.65926308888847";"913 287 070";"";"";"/contenido/entidadesYorganismos/CentrosAtencionSocialMayores/ResidenciasApartamentosMayores"
5924766;"Residencia para mayores y centro de día Amavir Villaverde";"";"";"Residencia de personas mayores dependientes y centro de día.";"Bus: 123, 85.";"";"3";"http://www.madrid.es/sites/v/index.jsp?vgnextchannel=bfa48ab43d6bb410VgnVCM100000171f5a0aRCRD&vgnextoid=fff848f924e9d210VgnVCM1000000b205a0aRCRD";"BERROCAL";"CALLE";"V";"42";"";"";"";"";"MADRID";"MADRID";"28021";"3";"BUTARQUE";"17";"VILLAVERDE";"442517";"4466215";"40.344507406138284";"-3.6768319151642084";"915 055 200";"";"";"/contenido/entidadesYorganismos/CentrosAtencionSocialMayores/ResidenciasApartamentosMayores"
190409;"Residencia para mayores y centro de día Ballesol Latina";"";"";"Residencia de personas mayores dependientes y centro de día.";"Metro: Aluche (línea 5).  Bus: 155.  Cercanías Renfe: Maestra Justa Freire - Polideportivo Aluche (antigua estación de Fanjul) (línea C5), Aluche (línea C5).";"";"3";"http://www.madrid.es/sites/v/index.jsp?vgnextchannel=bfa48ab43d6bb410VgnVCM100000171f5a0aRCRD&vgnextoid=70ee5fc2e04cf010VgnVCM1000000b205a0aRCRD";"CASUARINA";"CALLE";"V";"4";"";"";"";"";"MADRID";"MADRID";"28044";"";"LAS ÁGUILAS";"";"LATINA";"435089";"4470383";"40.38150064228888";"-3.7647215936291714";"913 287 070";"";"";"/contenido/entidadesYorganismos/CentrosAtencionSocialMayores/ResidenciasApartamentosMayores"
11389;"Residencia para mayores y centro de día Casablanca El Plantío";"";"";"Residencia de personas mayores dependientes y centro de día.";"Bus: 163.";"";"3";"http://www.madrid.es/sites/v/index.jsp?vgnextchannel=bfa48ab43d6bb410VgnVCM100000171f5a0aRCRD&vgnextoid=a84272081661c010VgnVCM1000000b205a0aRCRD";"VICTORIA";"AVENIDA";"V";"74";"";"";"";"";"MADRID";"MADRID";"28023";"6";"EL PLANTIO";"9";"MONCLOA-ARAVACA";"429949";"4480391";"40.47124753361822";"-3.826360668500654";"913 728 102";"";"";"/contenido/entidadesYorganismos/CentrosAtencionSocialMayores/ResidenciasApartamentosMayores"
4541906;"Residencia para mayores y centro de día Centro Alzheimer Reina Sofía (calle Valderebollo 5)";"";"";"Residencia de personas mayores dependientes y centro de día.";"Metro: Congosto (línea 1).  Bus: 103.";"";"3";"http://www.madrid.es/sites/v/index.jsp?vgnextchannel=bfa48ab43d6bb410VgnVCM100000171f5a0aRCRD&vgnextoid=4fb89b165e961110VgnVCM1000000b205a0aRCRD";"VALDERREBOLLO";"CALLE";"V";"5";"";"";"";"";"MADRID";"MADRID";"28031";"1";"CASCO H.VALLECAS";"18";"VILLA DE VALLECAS";"446727";"4469317";"40.37273183621985";"-3.6275233622558347";"913 643 940";"";"";"/contenido/entidadesYorganismos/CentrosAtencionSocialMayores/ResidenciasApartamentosMayores"
11868171;"Residencia para mayores y centro de día Emera Méndez Álvaro";"";"";"Residencia de personas mayores dependientes y centro de día.";"Bus:  148, 156, 102, 152, 8.    Cercanías Renfe:   Méndez Alvaro (líneas C, C5, C7 y C10).";"";"3";"http://www.madrid.es/sites/v/index.jsp?vgnextchannel=bfa48ab43d6bb410VgnVCM100000171f5a0aRCRD&vgnextoid=0cb4b8e6fd1e4810VgnVCM2000001f4a900aRCRD";"VILLARROBLEDO";"CALLE";"V";"15";"";"";"";"";"MADRID";"MADRID";"28045";"4";"LEGAZPI";"2";"ARGANZUELA";"442200";"4471565";"40.3926838410558";"-3.6810467018141617";"910 311 301";"";"";"/contenido/entidadesYorganismos/CentrosAtencionSocialMayores/ResidenciasApartamentosMayores"
6660515;"Residencia para mayores y centro de día Ensanche de Vallecas";"";"";"Residencia de personas mayores dependientes y centro de día.";"Metro: Congosto (línea 1).  Bus: 142.";"";"3";"http://www.madrid.es/sites/v/index.jsp?vgnextchannel=bfa48ab43d6bb410VgnVCM100000171f5a0aRCRD&vgnextoid=93cdb82ed814b310VgnVCM1000000b205a0aRCRD";"CERRO MILANO";"AVENIDA";"V";"1";"";"";"";"";"MADRID";"MADRID";"28051";"1";"CASCO H.VALLECAS";"18";"VILLA DE VALLECAS";"447502";"4468855";"40.36861899124304";"-3.618356801446381";"914 948 677";"";"";"/contenido/entidadesYorganismos/CentrosAtencionSocialMayores/ResidenciasApartamentosMayores"
10202595;"Residencia para mayores y centro de día Gran Residencia";"";"";"Residencia para personas mayores y centro de día.";"Metro: Oporto (líneas 5 y 6).  Bus: 34, 35.";"";"3";"http://www.madrid.es/sites/v/index.jsp?vgnextchannel=bfa48ab43d6bb410VgnVCM100000171f5a0aRCRD&vgnextoid=338351c47afa8510VgnVCM1000001d4a900aRCRD";"GENERAL RICARDOS";"CALLE";"V";"177";"";"";"";"";"MADRID";"MADRID";"28025";"5";"PUERTA BONITA";"11";"CARABANCHEL";"437487";"4470773";"40.385197375260255";"-3.7364997414123096";"914 625 800";"";"";"/contenido/entidadesYorganismos/CentrosAtencionSocialMayores/ResidenciasApartamentosMayores"
6361560;"Residencia para mayores y centro de día Isabel la Católica";"";"";"";"Metro: Ventilla (línea 9).  Bus: 177.";"";"3";"http://www.madrid.es/sites/v/index.jsp?vgnextchannel=bfa48ab43d6bb410VgnVCM100000171f5a0aRCRD&vgnextoid=f0585c1f7e436310VgnVCM2000000c205a0aRCRD";"JOAQUÍN DICENTA";"CALLE";"V";"27";"";"";"";"";"MADRID";"MADRID";"28029";"4";"ALMENARA";"6";"TETUAN";"441135";"4480410";"40.472286755227934";"-3.694416207949747";"917 321 880";"";"";"/contenido/entidadesYorganismos/CentrosAtencionSocialMayores/ResidenciasApartamentosMayores"
5872902;"Residencia para mayores y centro de día Los Nogales Puerta de Hierro I";"";"";"Residencia de personas mayores dependientes y centro de día.";"Metro: Peñagrande (línea 7).  Bus: 127, 132, 137, 42.";"";"3";"http://www.madrid.es/sites/v/index.jsp?vgnextchannel=bfa48ab43d6bb410VgnVCM100000171f5a0aRCRD&vgnextoid=74c45c156d27c210VgnVCM2000000c205a0aRCRD";"ISLA MALAITA";"CALLE";"V";"4";"";"";"";"";"MADRID";"MADRID";"28035";"3";"PEÑA GRANDE";"8";"FUENCARRAL-EL PARDO";"438864";"4480574";"40.4736000726692";"-3.721220477232886";"917 892 009 (residencia) / 913 648 252 (centro de día)";"";"";"/contenido/entidadesYorganismos/CentrosAtencionSocialMayores/ResidenciasApartamentosMayores"
5934110;"Residencia para mayores y centro de día Los Robles GerHoteles";"";"";"Residencia de personas mayores mixta y centro de día.";"Bus: 87.";"";"3";"http://www.madrid.es/sites/v/index.jsp?vgnextchannel=bfa48ab43d6bb410VgnVCM100000171f5a0aRCRD&vgnextoid=3dfdb014bd7cd210VgnVCM2000000c205a0aRCRD";"DUQUESA DE CASTREJON";"CALLE";"V";"19";"";"";"";"";"MADRID";"MADRID";"28033";"4";"PINAR DEL REY";"16";"HORTALEZA";"444027";"4479453";"40.463856496094444";"-3.6602294638810635";"917 445 280";"";"";"/contenido/entidadesYorganismos/CentrosAtencionSocialMayores/ResidenciasApartamentosMayores"
146698;"Residencia para mayores y centro de día Madrid Sur";"";"";"";"Metro: Buenos Aires (línea 1).  Bus: 310, 103.";"";"3";"http://www.madrid.es/sites/v/index.jsp?vgnextchannel=bfa48ab43d6bb410VgnVCM100000171f5a0aRCRD&vgnextoid=55b28f90a581c010VgnVCM1000000b205a0aRCRD";"JAVIER DE MIGUEL";"CALLE";"V";"42";"";"";"";"";"MADRID";"MADRID";"28018";"3";"PALOMERAS BAJAS";"13";"PUENTE DE VALLECAS";"444107";"4470889";"40.38672180378237";"-3.6585213494793836";"913 807 570";"";"";"/contenido/entidadesYorganismos/CentrosAtencionSocialMayores/ResidenciasApartamentosMayores"
18534;"Residencia para mayores y centro de día Mirasierra";"";"";"Residencia de personas mayores mixta y centro de día.";"Metro: Mirasierra (línea 9).  Bus: 49, 134, 133.";"";"3";"http://www.madrid.es/sites/v/index.jsp?vgnextchannel=bfa48ab43d6bb410VgnVCM100000171f5a0aRCRD&vgnextoid=137b444a2951c010VgnVCM2000000c205a0aRCRD";"PORTERA DEL CURA";"CALLE";"V";"1";"";"";"";"";"MADRID";"MADRID";"28034";"7";"MIRASIERRA";"8";"FUENCARRAL-EL PARDO";"439415";"4482487";"40.49087341659495";"-3.714903625882909";"917 341 626 (residencia) / 917 341 410 (centro de día)";"";"";"/contenido/entidadesYorganismos/CentrosAtencionSocialMayores/ResidenciasApartamentosMayores"
175453;"Residencia para mayores y centro de día Montehermoso";"";"";"Residencia de personas mayores dependientes y centro de día.";"Metro: Alto de Extremadura (línea 6).  Bus: 33, 36, 39, 65, 31.";"";"3";"http://www.madrid.es/sites/v/index.jsp?vgnextchannel=bfa48ab43d6bb410VgnVCM100000171f5a0aRCRD&vgnextoid=8627bff77961c010VgnVCM1000000b205a0aRCRD";"DOCTOR BLANCO NAJERA";"CALLE";"V";"6";"";"";"";"";"MADRID";"MADRID";"28011";"3";"LUCERO";"10";"LATINA";"436935";"4473421";"40.409010004521576";"-3.7432767000188614";"915 267 585";"";"";"/contenido/entidadesYorganismos/CentrosAtencionSocialMayores/ResidenciasApartamentosMayores"
5937334;"Residencia para mayores y centro de día Nuestra Señora de Montserrat";"";"";"Residencia de personas mayores mixta y centro de día.";"Metro: San Bernardo (líneas 2 y 4).  Bus: 147, 3, 21, C03.  Bicimad: Estación 12 (calle San Bernardo, 85).";"";"3";"http://www.madrid.es/sites/v/index.jsp?vgnextchannel=bfa48ab43d6bb410VgnVCM100000171f5a0aRCRD&vgnextoid=cfdbe25ed61ed210VgnVCM1000000b205a0aRCRD";"SAN BERNARDO";"CALLE";"V";"79";"";"";"";"";"MADRID";"MADRID";"28015";"5";"UNIVERSIDAD";"1";"CENTRO";"440071";"4475463";"40.42764597271771";"-3.70651199134605";"914 471 250";"";"";"/contenido/entidadesYorganismos/CentrosAtencionSocialMayores/ResidenciasApartamentosMayores"
96739;"Residencia para mayores y centro de día Peñuelas";"";"";"Residencia de personas mayores dependientes y centro de día.";"Metro: Acacias (línea 5), Pirámides (línea 5).  Bus: 62.  Cercanías Renfe: Pirámides (líneas C1 y C10).  Bicimad: Estaciones 170 (paseo de la Esperanza, 21), 163 (paseo de la Esperanza, 2).";"";"1";"http://www.madrid.es/sites/v/index.jsp?vgnextchannel=bfa48ab43d6bb410VgnVCM100000171f5a0aRCRD&vgnextoid=72fe4f36ff81c010VgnVCM1000000b205a0aRCRD";"ARGANDA";"CALLE";"V";"11";"";"";"";"";"MADRID";"MADRID";"28005";"2";"ACACIAS";"2";"ARGANZUELA";"440040";"4472538";"40.401285030322434";"-3.7065898502689305";"915 060 596";"";"";"/contenido/entidadesYorganismos/CentrosAtencionSocialMayores/ResidenciasApartamentosMayores"
131562;"Residencia para mayores y centro de día Plata y Castañar";"";"Residencia de personas mayores dependientes y centro de día.";"";"Bus: 76.";"";"3";"http://www.madrid.es/sites/v/index.jsp?vgnextchannel=bfa48ab43d6bb410VgnVCM100000171f5a0aRCRD&vgnextoid=10c015a11a81c010VgnVCM1000000b205a0aRCRD";"PLATA Y CASTAÑAR";"PASEO";"V";"38";"";"";"";"";"MADRID";"MADRID";"28021";"";"SAN ANDRES";"";"VILLAVERDE";"438949";"4467103";"40.35225354460389";"-3.718925123289766";"917 987 912";"";"";"/contenido/entidadesYorganismos/CentrosAtencionSocialMayores/ResidenciasApartamentosMayores"
11367;"Residencia para mayores y centro de día Vallecas";"";"";"Residencia de personas mayores autónomas y centro de día.";"Bus: 54.";"";"3";"http://www.madrid.es/sites/v/index.jsp?vgnextchannel=bfa48ab43d6bb410VgnVCM100000171f5a0aRCRD&vgnextoid=c94914c4d661c010VgnVCM1000000b205a0aRCRD";"BENJAMÍN PALENCIA";"CALLE";"V";"25";"";"";"";"";"MADRID";"MADRID";"28038";"5";"PORTAZGO";"13";"PUENTE DE VALLECAS";"445026";"4471761";"40.39463846689862";"-3.6477697817690022";"917 791 440";"";"";"/contenido/entidadesYorganismos/CentrosAtencionSocialMayores/ResidenciasApartamentosMayores"
112273;"Residencia para mayores y centro de día Villaverde Alzheimer";"";"";"Residencia de personas mayores dependientes y centro de día.";"Metro:  Villaverde Bajo - Cruce (línea 3).  Bus: 123, 130, 23.   Renfe:   Villaverde Bajo (líneas C3, C4, C4a y C4b).";"";"3";"http://www.madrid.es/sites/v/index.jsp?vgnextchannel=bfa48ab43d6bb410VgnVCM100000171f5a0aRCRD&vgnextoid=e1d92189cb81c010VgnVCM1000000b205a0aRCRD";"DE VILLAVERDE A VALLECAS";"CARRETERA";"V";"38";"";"";"";"";"MADRID";"MADRID";"28021";"4";"LOS ROSALES";"17";"VILLAVERDE";"441732";"4467529";"40.35628125589703";"-3.6861941277985424";"917 230 961  / 917 230 962 / 917 230 963";"";"";"/contenido/entidadesYorganismos/CentrosAtencionSocialMayores/ResidenciasApartamentosMayores"
6725657;"Residencia para personas mayores Moratalaz";"";"";"Residencia de personas mayores dependientes.";"Metro: Pavones (línea 9).  Bus: 30, 71, 8.";"";"3";"http://www.madrid.es/sites/v/index.jsp?vgnextchannel=bfa48ab43d6bb410VgnVCM100000171f5a0aRCRD&vgnextoid=45a3d83d582bb310VgnVCM1000000b205a0aRCRD";"LUIS DE HOYOS SAINZ";"CALLE";"V";"196";"";"";"";"";"MADRID";"MADRID";"28030";"1";"PAVONES";"14";"MORATALAZ";"446594";"4472387";"40.400380460243085";"-3.6293463685256357";"917 730 483 / 917 730 495";"";"";"/contenido/entidadesYorganismos/CentrosAtencionSocialMayores/ResidenciasApartamentosMayores"
5937351;"Residencia sacerdotal para mayores San Pedro";"";"";"Residencia de personas mayores mixta.";"Metro: San Bernardo (líneas 2 y 4).  Bus: 147, 3, 149, 37, 21, C03.  Bicimad: Estación 3 (Plaza Conde Suchil, 3).";"";"3";"http://www.madrid.es/sites/v/index.jsp?vgnextchannel=bfa48ab43d6bb410VgnVCM100000171f5a0aRCRD&vgnextoid=3d82e25ed61ed210VgnVCM1000000b205a0aRCRD";"SAN BERNARDO";"CALLE";"V";"101";"";"";"";"";"MADRID";"MADRID";"28015";"2";"ARAPILES";"7";"CHAMBERI";"440155";"4475821";"40.43087704433084";"-3.7055554938950297";"914 454 200";"";"";"/contenido/entidadesYorganismos/CentrosAtencionSocialMayores/ResidenciasApartamentosMayores"
10846537;"Residencia y Centro de día para mayores Albertia Moratalaz";"";"";"Centro de día y residencia de personas mayores mixta.";"Metro:   Pavones (línea 9).    Bus:   30, 71, 8, 32, 20.";"";"3";"http://www.madrid.es/sites/v/index.jsp?vgnextchannel=bfa48ab43d6bb410VgnVCM100000171f5a0aRCRD&vgnextoid=140b6ef4717a7610VgnVCM2000001f4a900aRCRD";"HACIENDA DE PAVONES";"CALLE";"V";"261";"";"";"";"";"MADRID";"MADRID";"28030";"1";"PAVONES";"14";"MORATALAZ";"446485";"4472300";"40.39958840438116";"-3.6306153168162774";"913 246 800";"";"";"/contenido/entidadesYorganismos/CentrosAtencionSocialMayores/ResidenciasApartamentosMayores"
119225;"Residencia y centro de día para mayores Emera Carabanchel";"";"";"Centro de día y residencia de personas mayores dependientes.";"Bus:  116, 121, 131, 155.";"";"3";"http://www.madrid.es/sites/v/index.jsp?vgnextchannel=bfa48ab43d6bb410VgnVCM100000171f5a0aRCRD&vgnextoid=8e0ba328be81c010VgnVCM1000000b205a0aRCRD";"JUAN MIEG";"CALLE";"V";"25";"";"";"";"";"MADRID";"MADRID";"28054";"6";"BUENAVISTA";"11";"CARABANCHEL";"438291";"4469247";"40.37152547800838";"-3.7268732139229983";"910 311 301";"";"";"/contenido/entidadesYorganismos/CentrosAtencionSocialMayores/ResidenciasApartamentosMayores"
5780684;"Residencia, centro de día y pisos tutelados para mayores Usera";"";"";"Residencia de personas mayores dependientes, pisos tutelados y centro de día.";"Bus: 6, 60, 81.";"";"3";"http://www.madrid.es/sites/v/index.jsp?vgnextchannel=bfa48ab43d6bb410VgnVCM100000171f5a0aRCRD&vgnextoid=3a0bc8a002b5a210VgnVCM2000000c205a0aRCRD";"CRISTO DE LA VICTORIA";"CALLE";"V";"247";"";"";"";"";"MADRID";"MADRID";"28026";"7";"PRADOLONGO";"12";"USERA";"439719";"4470042";"40.37877656398025";"-3.710147907153374";"913 307 200";"";"";"/contenido/entidadesYorganismos/CentrosAtencionSocialMayores/ResidenciasApartamentosMayores"

